<?xml version="1.0" encoding="UTF-8"?>
<gpx version="1.1" creator="OpenFlyover sample generator (scripts/gen-sample-gpx.mjs)"
     xmlns="http://www.topografix.com/GPX/1/1"
     xmlns:gpxtpx="http://www.garmin.com/xmlschemas/TrackPointExtension/v1"
     xmlns:xsi="http://www.w3.org/2001/XMLSchema-instance"
     xsi:schemaLocation="http://www.topografix.com/GPX/1/1 http://www.topografix.com/GPX/1/1/gpx.xsd">
  <metadata>
    <name>Tour du Mont-Blanc — Étape 1 : Les Houches → Les Contamines</name>
    <desc>Trace synthétique réaliste générée pour la démonstration (aucune donnée réelle).</desc>
    <time>2025-07-12T07:00:00Z</time>
  </metadata>
  <wpt lat="45.891100" lon="6.798600"><ele>1010</ele><name>Les Houches</name></wpt>
  <wpt lat="45.885800" lon="6.790500"><ele>1165</ele><name>Sous le Prarion</name></wpt>
  <wpt lat="45.878200" lon="6.784500"><ele>1385</ele><name>Chalets du Délevret</name></wpt>
  <wpt lat="45.863100" lon="6.782000"><ele>1653</ele><name>Col de Voza</name></wpt>
  <wpt lat="45.856500" lon="6.769000"><ele>1420</ele><name>Le Crozat</name></wpt>
  <wpt lat="45.854200" lon="6.764300"><ele>1335</ele><name>Bionnassay</name></wpt>
  <wpt lat="45.848200" lon="6.753000"><ele>1245</ele><name>La Villette</name></wpt>
  <wpt lat="45.844300" lon="6.747800"><ele>1205</ele><name>Le Champel</name></wpt>
  <wpt lat="45.836200" lon="6.738500"><ele>1175</ele><name>Tresse</name></wpt>
  <wpt lat="45.828000" lon="6.731800"><ele>1152</ele><name>Le Pontet</name></wpt>
  <wpt lat="45.822500" lon="6.727300"><ele>1167</ele><name>Les Contamines-Montjoie</name></wpt>
  <trk>
    <name>Tour du Mont-Blanc — Étape 1 : Les Houches → Les Contamines</name>
    <type>hiking</type>
    <trkseg>
      <trkpt lat="45.890577" lon="6.799149">
        <ele>1011.0</ele>
        <time>2025-07-12T07:00:00Z</time>
        <extensions><gpxtpx:TrackPointExtension><gpxtpx:hr>106</gpxtpx:hr></gpxtpx:TrackPointExtension></extensions>
      </trkpt>
      <trkpt lat="45.890376" lon="6.798872">
        <ele>1015.9</ele>
        <time>2025-07-12T07:01:00Z</time>
        <extensions><gpxtpx:TrackPointExtension><gpxtpx:hr>111</gpxtpx:hr></gpxtpx:TrackPointExtension></extensions>
      </trkpt>
      <trkpt lat="45.890274" lon="6.798438">
        <ele>1018.0</ele>
        <time>2025-07-12T07:02:00Z</time>
        <extensions><gpxtpx:TrackPointExtension><gpxtpx:hr>116</gpxtpx:hr></gpxtpx:TrackPointExtension></extensions>
      </trkpt>
      <trkpt lat="45.890419" lon="6.797998">
        <ele>1021.3</ele>
        <time>2025-07-12T07:03:00Z</time>
        <extensions><gpxtpx:TrackPointExtension><gpxtpx:hr>117</gpxtpx:hr></gpxtpx:TrackPointExtension></extensions>
      </trkpt>
      <trkpt lat="45.890354" lon="6.797511">
        <ele>1028.8</ele>
        <time>2025-07-12T07:04:00Z</time>
        <extensions><gpxtpx:TrackPointExtension><gpxtpx:hr>119</gpxtpx:hr></gpxtpx:TrackPointExtension></extensions>
      </trkpt>
      <trkpt lat="45.890029" lon="6.797340">
        <ele>1031.6</ele>
        <time>2025-07-12T07:05:00Z</time>
        <extensions><gpxtpx:TrackPointExtension><gpxtpx:hr>121</gpxtpx:hr></gpxtpx:TrackPointExtension></extensions>
      </trkpt>
      <trkpt lat="45.890199" lon="6.796896">
        <ele>1035.2</ele>
        <time>2025-07-12T07:06:00Z</time>
        <extensions><gpxtpx:TrackPointExtension><gpxtpx:hr>119</gpxtpx:hr></gpxtpx:TrackPointExtension></extensions>
      </trkpt>
      <trkpt lat="45.890511" lon="6.796348">
        <ele>1035.7</ele>
        <time>2025-07-12T07:07:00Z</time>
        <extensions><gpxtpx:TrackPointExtension><gpxtpx:hr>120</gpxtpx:hr></gpxtpx:TrackPointExtension></extensions>
      </trkpt>
      <trkpt lat="45.890758" lon="6.795915">
        <ele>1038.9</ele>
        <time>2025-07-12T07:08:00Z</time>
        <extensions><gpxtpx:TrackPointExtension><gpxtpx:hr>118</gpxtpx:hr></gpxtpx:TrackPointExtension></extensions>
      </trkpt>
      <trkpt lat="45.890956" lon="6.795319">
        <ele>1040.5</ele>
        <time>2025-07-12T07:09:00Z</time>
        <extensions><gpxtpx:TrackPointExtension><gpxtpx:hr>121</gpxtpx:hr></gpxtpx:TrackPointExtension></extensions>
      </trkpt>
      <trkpt lat="45.890672" lon="6.795152">
        <ele>1045.1</ele>
        <time>2025-07-12T07:10:00Z</time>
        <extensions><gpxtpx:TrackPointExtension><gpxtpx:hr>122</gpxtpx:hr></gpxtpx:TrackPointExtension></extensions>
      </trkpt>
      <trkpt lat="45.890279" lon="6.795158">
        <ele>1049.1</ele>
        <time>2025-07-12T07:11:00Z</time>
        <extensions><gpxtpx:TrackPointExtension><gpxtpx:hr>123</gpxtpx:hr></gpxtpx:TrackPointExtension></extensions>
      </trkpt>
      <trkpt lat="45.889911" lon="6.795295">
        <ele>1052.2</ele>
        <time>2025-07-12T07:12:00Z</time>
        <extensions><gpxtpx:TrackPointExtension><gpxtpx:hr>119</gpxtpx:hr></gpxtpx:TrackPointExtension></extensions>
      </trkpt>
      <trkpt lat="45.889432" lon="6.795547">
        <ele>1054.5</ele>
        <time>2025-07-12T07:13:00Z</time>
        <extensions><gpxtpx:TrackPointExtension><gpxtpx:hr>119</gpxtpx:hr></gpxtpx:TrackPointExtension></extensions>
      </trkpt>
      <trkpt lat="45.889039" lon="6.795799">
        <ele>1055.2</ele>
        <time>2025-07-12T07:14:00Z</time>
        <extensions><gpxtpx:TrackPointExtension><gpxtpx:hr>117</gpxtpx:hr></gpxtpx:TrackPointExtension></extensions>
      </trkpt>
      <trkpt lat="45.888592" lon="6.796055">
        <ele>1059.5</ele>
        <time>2025-07-12T07:15:00Z</time>
        <extensions><gpxtpx:TrackPointExtension><gpxtpx:hr>116</gpxtpx:hr></gpxtpx:TrackPointExtension></extensions>
      </trkpt>
      <trkpt lat="45.888161" lon="6.796182">
        <ele>1061.7</ele>
        <time>2025-07-12T07:16:00Z</time>
        <extensions><gpxtpx:TrackPointExtension><gpxtpx:hr>118</gpxtpx:hr></gpxtpx:TrackPointExtension></extensions>
      </trkpt>
      <trkpt lat="45.888336" lon="6.795661">
        <ele>1065.7</ele>
        <time>2025-07-12T07:17:00Z</time>
        <extensions><gpxtpx:TrackPointExtension><gpxtpx:hr>117</gpxtpx:hr></gpxtpx:TrackPointExtension></extensions>
      </trkpt>
      <trkpt lat="45.888605" lon="6.795141">
        <ele>1065.0</ele>
        <time>2025-07-12T07:18:00Z</time>
        <extensions><gpxtpx:TrackPointExtension><gpxtpx:hr>117</gpxtpx:hr></gpxtpx:TrackPointExtension></extensions>
      </trkpt>
      <trkpt lat="45.888838" lon="6.794598">
        <ele>1070.5</ele>
        <time>2025-07-12T07:19:00Z</time>
        <extensions><gpxtpx:TrackPointExtension><gpxtpx:hr>119</gpxtpx:hr></gpxtpx:TrackPointExtension></extensions>
      </trkpt>
      <trkpt lat="45.888910" lon="6.794090">
        <ele>1072.5</ele>
        <time>2025-07-12T07:20:00Z</time>
        <extensions><gpxtpx:TrackPointExtension><gpxtpx:hr>122</gpxtpx:hr></gpxtpx:TrackPointExtension></extensions>
      </trkpt>
      <trkpt lat="45.888937" lon="6.793638">
        <ele>1077.2</ele>
        <time>2025-07-12T07:21:00Z</time>
        <extensions><gpxtpx:TrackPointExtension><gpxtpx:hr>123</gpxtpx:hr></gpxtpx:TrackPointExtension></extensions>
      </trkpt>
      <trkpt lat="45.888963" lon="6.793108">
        <ele>1082.7</ele>
        <time>2025-07-12T07:22:00Z</time>
        <extensions><gpxtpx:TrackPointExtension><gpxtpx:hr>123</gpxtpx:hr></gpxtpx:TrackPointExtension></extensions>
      </trkpt>
      <trkpt lat="45.888649" lon="6.792932">
        <ele>1089.3</ele>
        <time>2025-07-12T07:23:00Z</time>
        <extensions><gpxtpx:TrackPointExtension><gpxtpx:hr>126</gpxtpx:hr></gpxtpx:TrackPointExtension></extensions>
      </trkpt>
      <trkpt lat="45.888483" lon="6.792657">
        <ele>1093.7</ele>
        <time>2025-07-12T07:24:00Z</time>
        <extensions><gpxtpx:TrackPointExtension><gpxtpx:hr>127</gpxtpx:hr></gpxtpx:TrackPointExtension></extensions>
      </trkpt>
      <trkpt lat="45.888557" lon="6.792170">
        <ele>1098.5</ele>
        <time>2025-07-12T07:25:00Z</time>
        <extensions><gpxtpx:TrackPointExtension><gpxtpx:hr>127</gpxtpx:hr></gpxtpx:TrackPointExtension></extensions>
      </trkpt>
      <trkpt lat="45.888563" lon="6.791709">
        <ele>1102.4</ele>
        <time>2025-07-12T07:26:00Z</time>
        <extensions><gpxtpx:TrackPointExtension><gpxtpx:hr>124</gpxtpx:hr></gpxtpx:TrackPointExtension></extensions>
      </trkpt>
      <trkpt lat="45.888173" lon="6.791884">
        <ele>1107.1</ele>
        <time>2025-07-12T07:27:00Z</time>
        <extensions><gpxtpx:TrackPointExtension><gpxtpx:hr>124</gpxtpx:hr></gpxtpx:TrackPointExtension></extensions>
      </trkpt>
      <trkpt lat="45.887872" lon="6.792174">
        <ele>1108.0</ele>
        <time>2025-07-12T07:28:00Z</time>
        <extensions><gpxtpx:TrackPointExtension><gpxtpx:hr>119</gpxtpx:hr></gpxtpx:TrackPointExtension></extensions>
      </trkpt>
      <trkpt lat="45.887467" lon="6.792631">
        <ele>1111.3</ele>
        <time>2025-07-12T07:29:00Z</time>
        <extensions><gpxtpx:TrackPointExtension><gpxtpx:hr>117</gpxtpx:hr></gpxtpx:TrackPointExtension></extensions>
      </trkpt>
      <trkpt lat="45.887103" lon="6.792989">
        <ele>1113.4</ele>
        <time>2025-07-12T07:30:00Z</time>
        <extensions><gpxtpx:TrackPointExtension><gpxtpx:hr>119</gpxtpx:hr></gpxtpx:TrackPointExtension></extensions>
      </trkpt>
      <trkpt lat="45.886794" lon="6.793263">
        <ele>1117.5</ele>
        <time>2025-07-12T07:31:00Z</time>
        <extensions><gpxtpx:TrackPointExtension><gpxtpx:hr>121</gpxtpx:hr></gpxtpx:TrackPointExtension></extensions>
      </trkpt>
      <trkpt lat="45.886458" lon="6.793336">
        <ele>1123.6</ele>
        <time>2025-07-12T07:32:00Z</time>
        <extensions><gpxtpx:TrackPointExtension><gpxtpx:hr>125</gpxtpx:hr></gpxtpx:TrackPointExtension></extensions>
      </trkpt>
      <trkpt lat="45.886345" lon="6.793000">
        <ele>1129.3</ele>
        <time>2025-07-12T07:33:00Z</time>
        <extensions><gpxtpx:TrackPointExtension><gpxtpx:hr>126</gpxtpx:hr></gpxtpx:TrackPointExtension></extensions>
      </trkpt>
      <trkpt lat="45.886437" lon="6.792540">
        <ele>1132.7</ele>
        <time>2025-07-12T07:34:00Z</time>
        <extensions><gpxtpx:TrackPointExtension><gpxtpx:hr>123</gpxtpx:hr></gpxtpx:TrackPointExtension></extensions>
      </trkpt>
      <trkpt lat="45.886595" lon="6.791945">
        <ele>1136.1</ele>
        <time>2025-07-12T07:35:00Z</time>
        <extensions><gpxtpx:TrackPointExtension><gpxtpx:hr>121</gpxtpx:hr></gpxtpx:TrackPointExtension></extensions>
      </trkpt>
      <trkpt lat="45.886747" lon="6.791394">
        <ele>1136.8</ele>
        <time>2025-07-12T07:36:00Z</time>
        <extensions><gpxtpx:TrackPointExtension><gpxtpx:hr>115</gpxtpx:hr></gpxtpx:TrackPointExtension></extensions>
      </trkpt>
      <trkpt lat="45.886957" lon="6.790670">
        <ele>1139.9</ele>
        <time>2025-07-12T07:37:00Z</time>
        <extensions><gpxtpx:TrackPointExtension><gpxtpx:hr>118</gpxtpx:hr></gpxtpx:TrackPointExtension></extensions>
      </trkpt>
      <trkpt lat="45.887057" lon="6.790172">
        <ele>1143.1</ele>
        <time>2025-07-12T07:38:00Z</time>
        <extensions><gpxtpx:TrackPointExtension><gpxtpx:hr>118</gpxtpx:hr></gpxtpx:TrackPointExtension></extensions>
      </trkpt>
      <trkpt lat="45.886872" lon="6.789922">
        <ele>1147.5</ele>
        <time>2025-07-12T07:39:00Z</time>
        <extensions><gpxtpx:TrackPointExtension><gpxtpx:hr>123</gpxtpx:hr></gpxtpx:TrackPointExtension></extensions>
      </trkpt>
      <trkpt lat="45.886597" lon="6.790092">
        <ele>1153.1</ele>
        <time>2025-07-12T07:40:00Z</time>
        <extensions><gpxtpx:TrackPointExtension><gpxtpx:hr>126</gpxtpx:hr></gpxtpx:TrackPointExtension></extensions>
      </trkpt>
      <trkpt lat="45.886297" lon="6.790184">
        <ele>1157.1</ele>
        <time>2025-07-12T07:41:00Z</time>
        <extensions><gpxtpx:TrackPointExtension><gpxtpx:hr>129</gpxtpx:hr></gpxtpx:TrackPointExtension></extensions>
      </trkpt>
      <trkpt lat="45.886042" lon="6.790105">
        <ele>1162.5</ele>
        <time>2025-07-12T07:42:00Z</time>
        <extensions><gpxtpx:TrackPointExtension><gpxtpx:hr>131</gpxtpx:hr></gpxtpx:TrackPointExtension></extensions>
      </trkpt>
      <trkpt lat="45.885761" lon="6.790202">
        <ele>1168.1</ele>
        <time>2025-07-12T07:43:00Z</time>
        <extensions><gpxtpx:TrackPointExtension><gpxtpx:hr>132</gpxtpx:hr></gpxtpx:TrackPointExtension></extensions>
      </trkpt>
      <trkpt lat="45.885480" lon="6.790247">
        <ele>1171.7</ele>
        <time>2025-07-12T07:44:00Z</time>
        <extensions><gpxtpx:TrackPointExtension><gpxtpx:hr>134</gpxtpx:hr></gpxtpx:TrackPointExtension></extensions>
      </trkpt>
      <trkpt lat="45.885293" lon="6.789984">
        <ele>1180.2</ele>
        <time>2025-07-12T07:45:00Z</time>
        <extensions><gpxtpx:TrackPointExtension><gpxtpx:hr>136</gpxtpx:hr></gpxtpx:TrackPointExtension></extensions>
      </trkpt>
      <trkpt lat="45.885046" lon="6.790012">
        <ele>1183.1</ele>
        <time>2025-07-12T07:46:00Z</time>
        <extensions><gpxtpx:TrackPointExtension><gpxtpx:hr>134</gpxtpx:hr></gpxtpx:TrackPointExtension></extensions>
      </trkpt>
      <trkpt lat="45.884741" lon="6.790281">
        <ele>1187.8</ele>
        <time>2025-07-12T07:47:00Z</time>
        <extensions><gpxtpx:TrackPointExtension><gpxtpx:hr>130</gpxtpx:hr></gpxtpx:TrackPointExtension></extensions>
      </trkpt>
      <trkpt lat="45.884400" lon="6.790669">
        <ele>1190.6</ele>
        <time>2025-07-12T07:48:00Z</time>
        <extensions><gpxtpx:TrackPointExtension><gpxtpx:hr>127</gpxtpx:hr></gpxtpx:TrackPointExtension></extensions>
      </trkpt>
      <trkpt lat="45.884022" lon="6.790881">
        <ele>1197.3</ele>
        <time>2025-07-12T07:49:00Z</time>
        <extensions><gpxtpx:TrackPointExtension><gpxtpx:hr>127</gpxtpx:hr></gpxtpx:TrackPointExtension></extensions>
      </trkpt>
      <trkpt lat="45.884033" lon="6.790431">
        <ele>1199.4</ele>
        <time>2025-07-12T07:50:00Z</time>
        <extensions><gpxtpx:TrackPointExtension><gpxtpx:hr>126</gpxtpx:hr></gpxtpx:TrackPointExtension></extensions>
      </trkpt>
      <trkpt lat="45.884163" lon="6.789863">
        <ele>1201.7</ele>
        <time>2025-07-12T07:51:00Z</time>
        <extensions><gpxtpx:TrackPointExtension><gpxtpx:hr>125</gpxtpx:hr></gpxtpx:TrackPointExtension></extensions>
      </trkpt>
      <trkpt lat="45.884287" lon="6.789327">
        <ele>1207.3</ele>
        <time>2025-07-12T07:52:00Z</time>
        <extensions><gpxtpx:TrackPointExtension><gpxtpx:hr>124</gpxtpx:hr></gpxtpx:TrackPointExtension></extensions>
      </trkpt>
      <trkpt lat="45.884421" lon="6.788727">
        <ele>1207.1</ele>
        <time>2025-07-12T07:53:00Z</time>
        <extensions><gpxtpx:TrackPointExtension><gpxtpx:hr>123</gpxtpx:hr></gpxtpx:TrackPointExtension></extensions>
      </trkpt>
      <trkpt lat="45.884513" lon="6.788167">
        <ele>1211.9</ele>
        <time>2025-07-12T07:54:00Z</time>
        <extensions><gpxtpx:TrackPointExtension><gpxtpx:hr>123</gpxtpx:hr></gpxtpx:TrackPointExtension></extensions>
      </trkpt>
      <trkpt lat="45.884613" lon="6.787602">
        <ele>1216.7</ele>
        <time>2025-07-12T07:55:00Z</time>
        <extensions><gpxtpx:TrackPointExtension><gpxtpx:hr>122</gpxtpx:hr></gpxtpx:TrackPointExtension></extensions>
      </trkpt>
      <trkpt lat="45.884698" lon="6.786979">
        <ele>1220.3</ele>
        <time>2025-07-12T07:56:00Z</time>
        <extensions><gpxtpx:TrackPointExtension><gpxtpx:hr>126</gpxtpx:hr></gpxtpx:TrackPointExtension></extensions>
      </trkpt>
      <trkpt lat="45.884494" lon="6.786868">
        <ele>1225.3</ele>
        <time>2025-07-12T07:57:00Z</time>
        <extensions><gpxtpx:TrackPointExtension><gpxtpx:hr>125</gpxtpx:hr></gpxtpx:TrackPointExtension></extensions>
      </trkpt>
      <trkpt lat="45.884152" lon="6.787204">
        <ele>1226.6</ele>
        <time>2025-07-12T07:58:00Z</time>
        <extensions><gpxtpx:TrackPointExtension><gpxtpx:hr>124</gpxtpx:hr></gpxtpx:TrackPointExtension></extensions>
      </trkpt>
      <trkpt lat="45.883859" lon="6.787610">
        <ele>1231.8</ele>
        <time>2025-07-12T07:59:00Z</time>
        <extensions><gpxtpx:TrackPointExtension><gpxtpx:hr>123</gpxtpx:hr></gpxtpx:TrackPointExtension></extensions>
      </trkpt>
      <trkpt lat="45.883539" lon="6.788025">
        <ele>1231.8</ele>
        <time>2025-07-12T08:00:00Z</time>
        <extensions><gpxtpx:TrackPointExtension><gpxtpx:hr>121</gpxtpx:hr></gpxtpx:TrackPointExtension></extensions>
      </trkpt>
      <trkpt lat="45.883179" lon="6.788431">
        <ele>1235.9</ele>
        <time>2025-07-12T08:01:00Z</time>
        <extensions><gpxtpx:TrackPointExtension><gpxtpx:hr>125</gpxtpx:hr></gpxtpx:TrackPointExtension></extensions>
      </trkpt>
      <trkpt lat="45.882926" lon="6.788384">
        <ele>1241.7</ele>
        <time>2025-07-12T08:02:00Z</time>
        <extensions><gpxtpx:TrackPointExtension><gpxtpx:hr>130</gpxtpx:hr></gpxtpx:TrackPointExtension></extensions>
      </trkpt>
      <trkpt lat="45.882750" lon="6.788135">
        <ele>1247.2</ele>
        <time>2025-07-12T08:03:00Z</time>
        <extensions><gpxtpx:TrackPointExtension><gpxtpx:hr>133</gpxtpx:hr></gpxtpx:TrackPointExtension></extensions>
      </trkpt>
      <trkpt lat="45.882476" lon="6.788144">
        <ele>1252.2</ele>
        <time>2025-07-12T08:04:00Z</time>
        <extensions><gpxtpx:TrackPointExtension><gpxtpx:hr>136</gpxtpx:hr></gpxtpx:TrackPointExtension></extensions>
      </trkpt>
      <trkpt lat="45.882301" lon="6.787931">
        <ele>1260.2</ele>
        <time>2025-07-12T08:05:00Z</time>
        <extensions><gpxtpx:TrackPointExtension><gpxtpx:hr>139</gpxtpx:hr></gpxtpx:TrackPointExtension></extensions>
      </trkpt>
      <trkpt lat="45.882188" lon="6.787664">
        <ele>1264.0</ele>
        <time>2025-07-12T08:06:00Z</time>
        <extensions><gpxtpx:TrackPointExtension><gpxtpx:hr>139</gpxtpx:hr></gpxtpx:TrackPointExtension></extensions>
      </trkpt>
      <trkpt lat="45.881947" lon="6.787624">
        <ele>1270.7</ele>
        <time>2025-07-12T08:07:00Z</time>
        <extensions><gpxtpx:TrackPointExtension><gpxtpx:hr>141</gpxtpx:hr></gpxtpx:TrackPointExtension></extensions>
      </trkpt>
      <trkpt lat="45.881758" lon="6.787500">
        <ele>1277.1</ele>
        <time>2025-07-12T08:08:00Z</time>
        <extensions><gpxtpx:TrackPointExtension><gpxtpx:hr>138</gpxtpx:hr></gpxtpx:TrackPointExtension></extensions>
      </trkpt>
      <trkpt lat="45.881764" lon="6.787009">
        <ele>1278.8</ele>
        <time>2025-07-12T08:09:00Z</time>
        <extensions><gpxtpx:TrackPointExtension><gpxtpx:hr>131</gpxtpx:hr></gpxtpx:TrackPointExtension></extensions>
      </trkpt>
      <trkpt lat="45.881876" lon="6.786388">
        <ele>1282.5</ele>
        <time>2025-07-12T08:10:00Z</time>
        <extensions><gpxtpx:TrackPointExtension><gpxtpx:hr>126</gpxtpx:hr></gpxtpx:TrackPointExtension></extensions>
      </trkpt>
      <trkpt lat="45.881984" lon="6.785736">
        <ele>1285.4</ele>
        <time>2025-07-12T08:11:00Z</time>
        <extensions><gpxtpx:TrackPointExtension><gpxtpx:hr>126</gpxtpx:hr></gpxtpx:TrackPointExtension></extensions>
      </trkpt>
      <trkpt lat="45.882058" lon="6.785219">
        <ele>1289.1</ele>
        <time>2025-07-12T08:12:00Z</time>
        <extensions><gpxtpx:TrackPointExtension><gpxtpx:hr>121</gpxtpx:hr></gpxtpx:TrackPointExtension></extensions>
      </trkpt>
      <trkpt lat="45.881927" lon="6.784725">
        <ele>1294.2</ele>
        <time>2025-07-12T08:13:00Z</time>
        <extensions><gpxtpx:TrackPointExtension><gpxtpx:hr>126</gpxtpx:hr></gpxtpx:TrackPointExtension></extensions>
      </trkpt>
      <trkpt lat="45.881685" lon="6.784862">
        <ele>1299.1</ele>
        <time>2025-07-12T08:14:00Z</time>
        <extensions><gpxtpx:TrackPointExtension><gpxtpx:hr>126</gpxtpx:hr></gpxtpx:TrackPointExtension></extensions>
      </trkpt>
      <trkpt lat="45.881406" lon="6.785166">
        <ele>1304.0</ele>
        <time>2025-07-12T08:15:00Z</time>
        <extensions><gpxtpx:TrackPointExtension><gpxtpx:hr>126</gpxtpx:hr></gpxtpx:TrackPointExtension></extensions>
      </trkpt>
      <trkpt lat="45.881143" lon="6.785490">
        <ele>1306.4</ele>
        <time>2025-07-12T08:16:00Z</time>
        <extensions><gpxtpx:TrackPointExtension><gpxtpx:hr>124</gpxtpx:hr></gpxtpx:TrackPointExtension></extensions>
      </trkpt>
      <trkpt lat="45.880866" lon="6.785915">
        <ele>1309.7</ele>
        <time>2025-07-12T08:17:00Z</time>
        <extensions><gpxtpx:TrackPointExtension><gpxtpx:hr>120</gpxtpx:hr></gpxtpx:TrackPointExtension></extensions>
      </trkpt>
      <trkpt lat="45.880564" lon="6.786419">
        <ele>1313.7</ele>
        <time>2025-07-12T08:18:00Z</time>
        <extensions><gpxtpx:TrackPointExtension><gpxtpx:hr>122</gpxtpx:hr></gpxtpx:TrackPointExtension></extensions>
      </trkpt>
      <trkpt lat="45.880345" lon="6.786824">
        <ele>1316.6</ele>
        <time>2025-07-12T08:19:00Z</time>
        <extensions><gpxtpx:TrackPointExtension><gpxtpx:hr>118</gpxtpx:hr></gpxtpx:TrackPointExtension></extensions>
      </trkpt>
      <trkpt lat="45.880019" lon="6.787329">
        <ele>1320.1</ele>
        <time>2025-07-12T08:20:00Z</time>
        <extensions><gpxtpx:TrackPointExtension><gpxtpx:hr>122</gpxtpx:hr></gpxtpx:TrackPointExtension></extensions>
      </trkpt>
      <trkpt lat="45.879828" lon="6.787276">
        <ele>1326.8</ele>
        <time>2025-07-12T08:21:00Z</time>
        <extensions><gpxtpx:TrackPointExtension><gpxtpx:hr>122</gpxtpx:hr></gpxtpx:TrackPointExtension></extensions>
      </trkpt>
      <trkpt lat="45.879848" lon="6.786750">
        <ele>1327.2</ele>
        <time>2025-07-12T08:22:00Z</time>
        <extensions><gpxtpx:TrackPointExtension><gpxtpx:hr>120</gpxtpx:hr></gpxtpx:TrackPointExtension></extensions>
      </trkpt>
      <trkpt lat="45.879883" lon="6.786142">
        <ele>1332.1</ele>
        <time>2025-07-12T08:23:00Z</time>
        <extensions><gpxtpx:TrackPointExtension><gpxtpx:hr>121</gpxtpx:hr></gpxtpx:TrackPointExtension></extensions>
      </trkpt>
      <trkpt lat="45.879864" lon="6.785619">
        <ele>1338.3</ele>
        <time>2025-07-12T08:24:00Z</time>
        <extensions><gpxtpx:TrackPointExtension><gpxtpx:hr>127</gpxtpx:hr></gpxtpx:TrackPointExtension></extensions>
      </trkpt>
      <trkpt lat="45.879668" lon="6.785393">
        <ele>1343.7</ele>
        <time>2025-07-12T08:25:00Z</time>
        <extensions><gpxtpx:TrackPointExtension><gpxtpx:hr>130</gpxtpx:hr></gpxtpx:TrackPointExtension></extensions>
      </trkpt>
      <trkpt lat="45.879516" lon="6.785141">
        <ele>1348.5</ele>
        <time>2025-07-12T08:26:00Z</time>
        <extensions><gpxtpx:TrackPointExtension><gpxtpx:hr>134</gpxtpx:hr></gpxtpx:TrackPointExtension></extensions>
      </trkpt>
      <trkpt lat="45.879402" lon="6.784793">
        <ele>1355.1</ele>
        <time>2025-07-12T08:27:00Z</time>
        <extensions><gpxtpx:TrackPointExtension><gpxtpx:hr>136</gpxtpx:hr></gpxtpx:TrackPointExtension></extensions>
      </trkpt>
      <trkpt lat="45.879275" lon="6.784481">
        <ele>1359.3</ele>
        <time>2025-07-12T08:28:00Z</time>
        <extensions><gpxtpx:TrackPointExtension><gpxtpx:hr>138</gpxtpx:hr></gpxtpx:TrackPointExtension></extensions>
      </trkpt>
      <trkpt lat="45.879080" lon="6.784281">
        <ele>1366.2</ele>
        <time>2025-07-12T08:29:00Z</time>
        <extensions><gpxtpx:TrackPointExtension><gpxtpx:hr>140</gpxtpx:hr></gpxtpx:TrackPointExtension></extensions>
      </trkpt>
      <trkpt lat="45.878975" lon="6.783933">
        <ele>1369.8</ele>
        <time>2025-07-12T08:30:00Z</time>
        <extensions><gpxtpx:TrackPointExtension><gpxtpx:hr>136</gpxtpx:hr></gpxtpx:TrackPointExtension></extensions>
      </trkpt>
      <trkpt lat="45.878937" lon="6.783382">
        <ele>1374.6</ele>
        <time>2025-07-12T08:31:00Z</time>
        <extensions><gpxtpx:TrackPointExtension><gpxtpx:hr>134</gpxtpx:hr></gpxtpx:TrackPointExtension></extensions>
      </trkpt>
      <trkpt lat="45.878726" lon="6.783159">
        <ele>1380.2</ele>
        <time>2025-07-12T08:32:00Z</time>
        <extensions><gpxtpx:TrackPointExtension><gpxtpx:hr>131</gpxtpx:hr></gpxtpx:TrackPointExtension></extensions>
      </trkpt>
      <trkpt lat="45.878485" lon="6.783625">
        <ele>1382.4</ele>
        <time>2025-07-12T08:33:00Z</time>
        <extensions><gpxtpx:TrackPointExtension><gpxtpx:hr>129</gpxtpx:hr></gpxtpx:TrackPointExtension></extensions>
      </trkpt>
      <trkpt lat="45.878267" lon="6.784112">
        <ele>1387.0</ele>
        <time>2025-07-12T08:34:00Z</time>
        <extensions><gpxtpx:TrackPointExtension><gpxtpx:hr>125</gpxtpx:hr></gpxtpx:TrackPointExtension></extensions>
      </trkpt>
      <trkpt lat="45.878041" lon="6.784697">
        <ele>1386.0</ele>
        <time>2025-07-12T08:35:00Z</time>
        <extensions><gpxtpx:TrackPointExtension><gpxtpx:hr>122</gpxtpx:hr></gpxtpx:TrackPointExtension></extensions>
      </trkpt>
      <trkpt lat="45.877804" lon="6.785274">
        <ele>1391.7</ele>
        <time>2025-07-12T08:36:00Z</time>
        <extensions><gpxtpx:TrackPointExtension><gpxtpx:hr>123</gpxtpx:hr></gpxtpx:TrackPointExtension></extensions>
      </trkpt>
      <trkpt lat="45.877557" lon="6.785714">
        <ele>1395.3</ele>
        <time>2025-07-12T08:37:00Z</time>
        <extensions><gpxtpx:TrackPointExtension><gpxtpx:hr>124</gpxtpx:hr></gpxtpx:TrackPointExtension></extensions>
      </trkpt>
      <trkpt lat="45.877256" lon="6.785905">
        <ele>1403.4</ele>
        <time>2025-07-12T08:38:00Z</time>
        <extensions><gpxtpx:TrackPointExtension><gpxtpx:hr>129</gpxtpx:hr></gpxtpx:TrackPointExtension></extensions>
      </trkpt>
      <trkpt lat="45.877085" lon="6.785659">
        <ele>1407.2</ele>
        <time>2025-07-12T08:39:00Z</time>
        <extensions><gpxtpx:TrackPointExtension><gpxtpx:hr>132</gpxtpx:hr></gpxtpx:TrackPointExtension></extensions>
      </trkpt>
      <trkpt lat="45.877017" lon="6.785214">
        <ele>1413.1</ele>
        <time>2025-07-12T08:40:00Z</time>
        <extensions><gpxtpx:TrackPointExtension><gpxtpx:hr>132</gpxtpx:hr></gpxtpx:TrackPointExtension></extensions>
      </trkpt>
      <trkpt lat="45.877022" lon="6.784703">
        <ele>1413.5</ele>
        <time>2025-07-12T08:41:00Z</time>
        <extensions><gpxtpx:TrackPointExtension><gpxtpx:hr>125</gpxtpx:hr></gpxtpx:TrackPointExtension></extensions>
      </trkpt>
      <trkpt lat="45.877021" lon="6.783940">
        <ele>1417.0</ele>
        <time>2025-07-12T08:42:00Z</time>
        <extensions><gpxtpx:TrackPointExtension><gpxtpx:hr>124</gpxtpx:hr></gpxtpx:TrackPointExtension></extensions>
      </trkpt>
      <trkpt lat="45.877016" lon="6.783347">
        <ele>1418.4</ele>
        <time>2025-07-12T08:43:00Z</time>
        <extensions><gpxtpx:TrackPointExtension><gpxtpx:hr>123</gpxtpx:hr></gpxtpx:TrackPointExtension></extensions>
      </trkpt>
      <trkpt lat="45.876945" lon="6.782768">
        <ele>1424.3</ele>
        <time>2025-07-12T08:44:00Z</time>
        <extensions><gpxtpx:TrackPointExtension><gpxtpx:hr>127</gpxtpx:hr></gpxtpx:TrackPointExtension></extensions>
      </trkpt>
      <trkpt lat="45.876697" lon="6.782831">
        <ele>1429.2</ele>
        <time>2025-07-12T08:45:00Z</time>
        <extensions><gpxtpx:TrackPointExtension><gpxtpx:hr>130</gpxtpx:hr></gpxtpx:TrackPointExtension></extensions>
      </trkpt>
      <trkpt lat="45.876499" lon="6.783170">
        <ele>1433.8</ele>
        <time>2025-07-12T08:46:00Z</time>
        <extensions><gpxtpx:TrackPointExtension><gpxtpx:hr>134</gpxtpx:hr></gpxtpx:TrackPointExtension></extensions>
      </trkpt>
      <trkpt lat="45.876238" lon="6.783207">
        <ele>1439.9</ele>
        <time>2025-07-12T08:47:00Z</time>
        <extensions><gpxtpx:TrackPointExtension><gpxtpx:hr>136</gpxtpx:hr></gpxtpx:TrackPointExtension></extensions>
      </trkpt>
      <trkpt lat="45.876027" lon="6.782985">
        <ele>1443.7</ele>
        <time>2025-07-12T08:48:00Z</time>
        <extensions><gpxtpx:TrackPointExtension><gpxtpx:hr>137</gpxtpx:hr></gpxtpx:TrackPointExtension></extensions>
      </trkpt>
      <trkpt lat="45.875778" lon="6.783133">
        <ele>1450.1</ele>
        <time>2025-07-12T08:49:00Z</time>
        <extensions><gpxtpx:TrackPointExtension><gpxtpx:hr>139</gpxtpx:hr></gpxtpx:TrackPointExtension></extensions>
      </trkpt>
      <trkpt lat="45.875552" lon="6.783350">
        <ele>1453.9</ele>
        <time>2025-07-12T08:50:00Z</time>
        <extensions><gpxtpx:TrackPointExtension><gpxtpx:hr>139</gpxtpx:hr></gpxtpx:TrackPointExtension></extensions>
      </trkpt>
      <trkpt lat="45.875285" lon="6.783440">
        <ele>1459.3</ele>
        <time>2025-07-12T08:51:00Z</time>
        <extensions><gpxtpx:TrackPointExtension><gpxtpx:hr>139</gpxtpx:hr></gpxtpx:TrackPointExtension></extensions>
      </trkpt>
      <trkpt lat="45.875090" lon="6.783705">
        <ele>1464.3</ele>
        <time>2025-07-12T08:52:00Z</time>
        <extensions><gpxtpx:TrackPointExtension><gpxtpx:hr>136</gpxtpx:hr></gpxtpx:TrackPointExtension></extensions>
      </trkpt>
      <trkpt lat="45.874923" lon="6.784174">
        <ele>1467.9</ele>
        <time>2025-07-12T08:53:00Z</time>
        <extensions><gpxtpx:TrackPointExtension><gpxtpx:hr>132</gpxtpx:hr></gpxtpx:TrackPointExtension></extensions>
      </trkpt>
      <trkpt lat="45.874745" lon="6.784680">
        <ele>1468.7</ele>
        <time>2025-07-12T08:54:00Z</time>
        <extensions><gpxtpx:TrackPointExtension><gpxtpx:hr>125</gpxtpx:hr></gpxtpx:TrackPointExtension></extensions>
      </trkpt>
      <trkpt lat="45.874494" lon="6.785336">
        <ele>1474.4</ele>
        <time>2025-07-12T08:55:00Z</time>
        <extensions><gpxtpx:TrackPointExtension><gpxtpx:hr>127</gpxtpx:hr></gpxtpx:TrackPointExtension></extensions>
      </trkpt>
      <trkpt lat="45.874306" lon="6.785124">
        <ele>1478.4</ele>
        <time>2025-07-12T08:56:00Z</time>
        <extensions><gpxtpx:TrackPointExtension><gpxtpx:hr>124</gpxtpx:hr></gpxtpx:TrackPointExtension></extensions>
      </trkpt>
      <trkpt lat="45.874258" lon="6.784528">
        <ele>1480.3</ele>
        <time>2025-07-12T08:57:00Z</time>
        <extensions><gpxtpx:TrackPointExtension><gpxtpx:hr>124</gpxtpx:hr></gpxtpx:TrackPointExtension></extensions>
      </trkpt>
      <trkpt lat="45.874227" lon="6.784004">
        <ele>1484.2</ele>
        <time>2025-07-12T08:58:00Z</time>
        <extensions><gpxtpx:TrackPointExtension><gpxtpx:hr>120</gpxtpx:hr></gpxtpx:TrackPointExtension></extensions>
      </trkpt>
      <trkpt lat="45.874178" lon="6.783337">
        <ele>1486.1</ele>
        <time>2025-07-12T08:59:00Z</time>
        <extensions><gpxtpx:TrackPointExtension><gpxtpx:hr>118</gpxtpx:hr></gpxtpx:TrackPointExtension></extensions>
      </trkpt>
      <trkpt lat="45.874123" lon="6.782717">
        <ele>1487.1</ele>
        <time>2025-07-12T09:00:00Z</time>
        <extensions><gpxtpx:TrackPointExtension><gpxtpx:hr>119</gpxtpx:hr></gpxtpx:TrackPointExtension></extensions>
      </trkpt>
      <trkpt lat="45.874021" lon="6.782196">
        <ele>1492.9</ele>
        <time>2025-07-12T09:01:00Z</time>
        <extensions><gpxtpx:TrackPointExtension><gpxtpx:hr>118</gpxtpx:hr></gpxtpx:TrackPointExtension></extensions>
      </trkpt>
      <trkpt lat="45.873921" lon="6.781595">
        <ele>1496.1</ele>
        <time>2025-07-12T09:02:00Z</time>
        <extensions><gpxtpx:TrackPointExtension><gpxtpx:hr>121</gpxtpx:hr></gpxtpx:TrackPointExtension></extensions>
      </trkpt>
      <trkpt lat="45.873745" lon="6.781230">
        <ele>1501.6</ele>
        <time>2025-07-12T09:03:00Z</time>
        <extensions><gpxtpx:TrackPointExtension><gpxtpx:hr>121</gpxtpx:hr></gpxtpx:TrackPointExtension></extensions>
      </trkpt>
      <trkpt lat="45.873520" lon="6.781647">
        <ele>1504.1</ele>
        <time>2025-07-12T09:04:00Z</time>
        <extensions><gpxtpx:TrackPointExtension><gpxtpx:hr>120</gpxtpx:hr></gpxtpx:TrackPointExtension></extensions>
      </trkpt>
      <trkpt lat="45.873338" lon="6.782160">
        <ele>1505.5</ele>
        <time>2025-07-12T09:05:00Z</time>
        <extensions><gpxtpx:TrackPointExtension><gpxtpx:hr>118</gpxtpx:hr></gpxtpx:TrackPointExtension></extensions>
      </trkpt>
      <trkpt lat="45.873162" lon="6.782743">
        <ele>1509.5</ele>
        <time>2025-07-12T09:06:00Z</time>
        <extensions><gpxtpx:TrackPointExtension><gpxtpx:hr>115</gpxtpx:hr></gpxtpx:TrackPointExtension></extensions>
      </trkpt>
      <trkpt lat="45.872885" lon="6.783321">
        <ele>1513.2</ele>
        <time>2025-07-12T09:07:00Z</time>
        <extensions><gpxtpx:TrackPointExtension><gpxtpx:hr>119</gpxtpx:hr></gpxtpx:TrackPointExtension></extensions>
      </trkpt>
      <trkpt lat="45.872675" lon="6.783159">
        <ele>1516.9</ele>
        <time>2025-07-12T09:08:00Z</time>
        <extensions><gpxtpx:TrackPointExtension><gpxtpx:hr>122</gpxtpx:hr></gpxtpx:TrackPointExtension></extensions>
      </trkpt>
      <trkpt lat="45.872391" lon="6.783116">
        <ele>1521.3</ele>
        <time>2025-07-12T09:09:00Z</time>
        <extensions><gpxtpx:TrackPointExtension><gpxtpx:hr>125</gpxtpx:hr></gpxtpx:TrackPointExtension></extensions>
      </trkpt>
      <trkpt lat="45.872175" lon="6.783451">
        <ele>1524.1</ele>
        <time>2025-07-12T09:10:00Z</time>
        <extensions><gpxtpx:TrackPointExtension><gpxtpx:hr>126</gpxtpx:hr></gpxtpx:TrackPointExtension></extensions>
      </trkpt>
      <trkpt lat="45.871888" lon="6.783587">
        <ele>1529.1</ele>
        <time>2025-07-12T09:11:00Z</time>
        <extensions><gpxtpx:TrackPointExtension><gpxtpx:hr>129</gpxtpx:hr></gpxtpx:TrackPointExtension></extensions>
      </trkpt>
      <trkpt lat="45.871631" lon="6.783576">
        <ele>1536.5</ele>
        <time>2025-07-12T09:12:00Z</time>
        <extensions><gpxtpx:TrackPointExtension><gpxtpx:hr>132</gpxtpx:hr></gpxtpx:TrackPointExtension></extensions>
      </trkpt>
      <trkpt lat="45.871362" lon="6.783670">
        <ele>1540.4</ele>
        <time>2025-07-12T09:13:00Z</time>
        <extensions><gpxtpx:TrackPointExtension><gpxtpx:hr>130</gpxtpx:hr></gpxtpx:TrackPointExtension></extensions>
      </trkpt>
      <trkpt lat="45.871247" lon="6.783158">
        <ele>1543.9</ele>
        <time>2025-07-12T09:14:00Z</time>
        <extensions><gpxtpx:TrackPointExtension><gpxtpx:hr>126</gpxtpx:hr></gpxtpx:TrackPointExtension></extensions>
      </trkpt>
      <trkpt lat="45.871188" lon="6.782501">
        <ele>1543.1</ele>
        <time>2025-07-12T09:15:00Z</time>
        <extensions><gpxtpx:TrackPointExtension><gpxtpx:hr>123</gpxtpx:hr></gpxtpx:TrackPointExtension></extensions>
      </trkpt>
      <trkpt lat="45.871164" lon="6.781868">
        <ele>1547.8</ele>
        <time>2025-07-12T09:16:00Z</time>
        <extensions><gpxtpx:TrackPointExtension><gpxtpx:hr>122</gpxtpx:hr></gpxtpx:TrackPointExtension></extensions>
      </trkpt>
      <trkpt lat="45.871128" lon="6.781240">
        <ele>1547.8</ele>
        <time>2025-07-12T09:17:00Z</time>
        <extensions><gpxtpx:TrackPointExtension><gpxtpx:hr>119</gpxtpx:hr></gpxtpx:TrackPointExtension></extensions>
      </trkpt>
      <trkpt lat="45.871046" lon="6.780557">
        <ele>1550.6</ele>
        <time>2025-07-12T09:18:00Z</time>
        <extensions><gpxtpx:TrackPointExtension><gpxtpx:hr>122</gpxtpx:hr></gpxtpx:TrackPointExtension></extensions>
      </trkpt>
      <trkpt lat="45.870808" lon="6.780592">
        <ele>1555.4</ele>
        <time>2025-07-12T09:19:00Z</time>
        <extensions><gpxtpx:TrackPointExtension><gpxtpx:hr>125</gpxtpx:hr></gpxtpx:TrackPointExtension></extensions>
      </trkpt>
      <trkpt lat="45.870606" lon="6.780986">
        <ele>1558.0</ele>
        <time>2025-07-12T09:20:00Z</time>
        <extensions><gpxtpx:TrackPointExtension><gpxtpx:hr>123</gpxtpx:hr></gpxtpx:TrackPointExtension></extensions>
      </trkpt>
      <trkpt lat="45.870393" lon="6.781521">
        <ele>1561.7</ele>
        <time>2025-07-12T09:21:00Z</time>
        <extensions><gpxtpx:TrackPointExtension><gpxtpx:hr>123</gpxtpx:hr></gpxtpx:TrackPointExtension></extensions>
      </trkpt>
      <trkpt lat="45.870179" lon="6.782035">
        <ele>1561.9</ele>
        <time>2025-07-12T09:22:00Z</time>
        <extensions><gpxtpx:TrackPointExtension><gpxtpx:hr>121</gpxtpx:hr></gpxtpx:TrackPointExtension></extensions>
      </trkpt>
      <trkpt lat="45.869977" lon="6.782632">
        <ele>1565.7</ele>
        <time>2025-07-12T09:23:00Z</time>
        <extensions><gpxtpx:TrackPointExtension><gpxtpx:hr>120</gpxtpx:hr></gpxtpx:TrackPointExtension></extensions>
      </trkpt>
      <trkpt lat="45.869803" lon="6.783205">
        <ele>1569.5</ele>
        <time>2025-07-12T09:24:00Z</time>
        <extensions><gpxtpx:TrackPointExtension><gpxtpx:hr>119</gpxtpx:hr></gpxtpx:TrackPointExtension></extensions>
      </trkpt>
      <trkpt lat="45.869578" lon="6.783756">
        <ele>1570.4</ele>
        <time>2025-07-12T09:25:00Z</time>
        <extensions><gpxtpx:TrackPointExtension><gpxtpx:hr>121</gpxtpx:hr></gpxtpx:TrackPointExtension></extensions>
      </trkpt>
      <trkpt lat="45.869365" lon="6.783470">
        <ele>1576.5</ele>
        <time>2025-07-12T09:26:00Z</time>
        <extensions><gpxtpx:TrackPointExtension><gpxtpx:hr>119</gpxtpx:hr></gpxtpx:TrackPointExtension></extensions>
      </trkpt>
      <trkpt lat="45.869248" lon="6.782816">
        <ele>1578.3</ele>
        <time>2025-07-12T09:27:00Z</time>
        <extensions><gpxtpx:TrackPointExtension><gpxtpx:hr>120</gpxtpx:hr></gpxtpx:TrackPointExtension></extensions>
      </trkpt>
      <trkpt lat="45.869073" lon="6.782336">
        <ele>1582.5</ele>
        <time>2025-07-12T09:28:00Z</time>
        <extensions><gpxtpx:TrackPointExtension><gpxtpx:hr>122</gpxtpx:hr></gpxtpx:TrackPointExtension></extensions>
      </trkpt>
      <trkpt lat="45.868765" lon="6.782550">
        <ele>1588.8</ele>
        <time>2025-07-12T09:29:00Z</time>
        <extensions><gpxtpx:TrackPointExtension><gpxtpx:hr>125</gpxtpx:hr></gpxtpx:TrackPointExtension></extensions>
      </trkpt>
      <trkpt lat="45.868559" lon="6.782244">
        <ele>1591.2</ele>
        <time>2025-07-12T09:30:00Z</time>
        <extensions><gpxtpx:TrackPointExtension><gpxtpx:hr>128</gpxtpx:hr></gpxtpx:TrackPointExtension></extensions>
      </trkpt>
      <trkpt lat="45.868420" lon="6.781839">
        <ele>1596.2</ele>
        <time>2025-07-12T09:31:00Z</time>
        <extensions><gpxtpx:TrackPointExtension><gpxtpx:hr>128</gpxtpx:hr></gpxtpx:TrackPointExtension></extensions>
      </trkpt>
      <trkpt lat="45.868217" lon="6.781444">
        <ele>1599.4</ele>
        <time>2025-07-12T09:32:00Z</time>
        <extensions><gpxtpx:TrackPointExtension><gpxtpx:hr>130</gpxtpx:hr></gpxtpx:TrackPointExtension></extensions>
      </trkpt>
      <trkpt lat="45.868039" lon="6.781071">
        <ele>1602.7</ele>
        <time>2025-07-12T09:33:00Z</time>
        <extensions><gpxtpx:TrackPointExtension><gpxtpx:hr>128</gpxtpx:hr></gpxtpx:TrackPointExtension></extensions>
      </trkpt>
      <trkpt lat="45.867900" lon="6.780561">
        <ele>1606.7</ele>
        <time>2025-07-12T09:34:00Z</time>
        <extensions><gpxtpx:TrackPointExtension><gpxtpx:hr>127</gpxtpx:hr></gpxtpx:TrackPointExtension></extensions>
      </trkpt>
      <trkpt lat="45.867698" lon="6.780131">
        <ele>1609.8</ele>
        <time>2025-07-12T09:35:00Z</time>
        <extensions><gpxtpx:TrackPointExtension><gpxtpx:hr>126</gpxtpx:hr></gpxtpx:TrackPointExtension></extensions>
      </trkpt>
      <trkpt lat="45.867484" lon="6.780567">
        <ele>1613.8</ele>
        <time>2025-07-12T09:36:00Z</time>
        <extensions><gpxtpx:TrackPointExtension><gpxtpx:hr>125</gpxtpx:hr></gpxtpx:TrackPointExtension></extensions>
      </trkpt>
      <trkpt lat="45.867365" lon="6.781109">
        <ele>1613.6</ele>
        <time>2025-07-12T09:37:00Z</time>
        <extensions><gpxtpx:TrackPointExtension><gpxtpx:hr>118</gpxtpx:hr></gpxtpx:TrackPointExtension></extensions>
      </trkpt>
      <trkpt lat="45.867209" lon="6.781868">
        <ele>1616.0</ele>
        <time>2025-07-12T09:38:00Z</time>
        <extensions><gpxtpx:TrackPointExtension><gpxtpx:hr>116</gpxtpx:hr></gpxtpx:TrackPointExtension></extensions>
      </trkpt>
      <trkpt lat="45.867085" lon="6.782514">
        <ele>1615.9</ele>
        <time>2025-07-12T09:39:00Z</time>
        <extensions><gpxtpx:TrackPointExtension><gpxtpx:hr>114</gpxtpx:hr></gpxtpx:TrackPointExtension></extensions>
      </trkpt>
      <trkpt lat="45.866925" lon="6.783163">
        <ele>1621.1</ele>
        <time>2025-07-12T09:40:00Z</time>
        <extensions><gpxtpx:TrackPointExtension><gpxtpx:hr>114</gpxtpx:hr></gpxtpx:TrackPointExtension></extensions>
      </trkpt>
      <trkpt lat="45.866639" lon="6.783467">
        <ele>1622.8</ele>
        <time>2025-07-12T09:41:00Z</time>
        <extensions><gpxtpx:TrackPointExtension><gpxtpx:hr>116</gpxtpx:hr></gpxtpx:TrackPointExtension></extensions>
      </trkpt>
      <trkpt lat="45.866382" lon="6.783135">
        <ele>1627.0</ele>
        <time>2025-07-12T09:42:00Z</time>
        <extensions><gpxtpx:TrackPointExtension><gpxtpx:hr>114</gpxtpx:hr></gpxtpx:TrackPointExtension></extensions>
      </trkpt>
      <trkpt lat="45.866196" lon="6.782523">
        <ele>1630.7</ele>
        <time>2025-07-12T09:43:00Z</time>
        <extensions><gpxtpx:TrackPointExtension><gpxtpx:hr>112</gpxtpx:hr></gpxtpx:TrackPointExtension></extensions>
      </trkpt>
      <trkpt lat="45.866079" lon="6.781864">
        <ele>1629.7</ele>
        <time>2025-07-12T09:44:00Z</time>
        <extensions><gpxtpx:TrackPointExtension><gpxtpx:hr>111</gpxtpx:hr></gpxtpx:TrackPointExtension></extensions>
      </trkpt>
      <trkpt lat="45.865883" lon="6.781247">
        <ele>1634.5</ele>
        <time>2025-07-12T09:45:00Z</time>
        <extensions><gpxtpx:TrackPointExtension><gpxtpx:hr>111</gpxtpx:hr></gpxtpx:TrackPointExtension></extensions>
      </trkpt>
      <trkpt lat="45.865608" lon="6.781071">
        <ele>1635.0</ele>
        <time>2025-07-12T09:46:00Z</time>
        <extensions><gpxtpx:TrackPointExtension><gpxtpx:hr>114</gpxtpx:hr></gpxtpx:TrackPointExtension></extensions>
      </trkpt>
      <trkpt lat="45.865404" lon="6.781513">
        <ele>1638.1</ele>
        <time>2025-07-12T09:47:00Z</time>
        <extensions><gpxtpx:TrackPointExtension><gpxtpx:hr>113</gpxtpx:hr></gpxtpx:TrackPointExtension></extensions>
      </trkpt>
      <trkpt lat="45.865025" lon="6.781434">
        <ele>1643.8</ele>
        <time>2025-07-12T09:48:00Z</time>
        <extensions><gpxtpx:TrackPointExtension><gpxtpx:hr>114</gpxtpx:hr></gpxtpx:TrackPointExtension></extensions>
      </trkpt>
      <trkpt lat="45.864729" lon="6.781327">
        <ele>1645.6</ele>
        <time>2025-07-12T09:49:00Z</time>
        <extensions><gpxtpx:TrackPointExtension><gpxtpx:hr>114</gpxtpx:hr></gpxtpx:TrackPointExtension></extensions>
      </trkpt>
      <trkpt lat="45.864490" lon="6.781791">
        <ele>1650.0</ele>
        <time>2025-07-12T09:50:00Z</time>
        <extensions><gpxtpx:TrackPointExtension><gpxtpx:hr>115</gpxtpx:hr></gpxtpx:TrackPointExtension></extensions>
      </trkpt>
      <trkpt lat="45.864223" lon="6.782189">
        <ele>1649.5</ele>
        <time>2025-07-12T09:51:00Z</time>
        <extensions><gpxtpx:TrackPointExtension><gpxtpx:hr>115</gpxtpx:hr></gpxtpx:TrackPointExtension></extensions>
      </trkpt>
      <trkpt lat="45.864056" lon="6.782734">
        <ele>1652.1</ele>
        <time>2025-07-12T09:52:00Z</time>
        <extensions><gpxtpx:TrackPointExtension><gpxtpx:hr>112</gpxtpx:hr></gpxtpx:TrackPointExtension></extensions>
      </trkpt>
      <trkpt lat="45.863672" lon="6.783179">
        <ele>1655.9</ele>
        <time>2025-07-12T09:53:00Z</time>
        <extensions><gpxtpx:TrackPointExtension><gpxtpx:hr>109</gpxtpx:hr></gpxtpx:TrackPointExtension></extensions>
      </trkpt>
      <trkpt lat="45.863358" lon="6.782577">
        <ele>1653.4</ele>
        <time>2025-07-12T09:54:00Z</time>
        <extensions><gpxtpx:TrackPointExtension><gpxtpx:hr>109</gpxtpx:hr></gpxtpx:TrackPointExtension></extensions>
      </trkpt>
      <trkpt lat="45.863191" lon="6.781960">
        <ele>1652.3</ele>
        <time>2025-07-12T09:55:00Z</time>
        <extensions><gpxtpx:TrackPointExtension><gpxtpx:hr>106</gpxtpx:hr></gpxtpx:TrackPointExtension></extensions>
      </trkpt>
      <trkpt lat="45.863285" lon="6.781088">
        <ele>1650.5</ele>
        <time>2025-07-12T09:56:00Z</time>
        <extensions><gpxtpx:TrackPointExtension><gpxtpx:hr>104</gpxtpx:hr></gpxtpx:TrackPointExtension></extensions>
      </trkpt>
      <trkpt lat="45.863383" lon="6.780472">
        <ele>1646.1</ele>
        <time>2025-07-12T09:57:00Z</time>
        <extensions><gpxtpx:TrackPointExtension><gpxtpx:hr>102</gpxtpx:hr></gpxtpx:TrackPointExtension></extensions>
      </trkpt>
      <trkpt lat="45.862887" lon="6.780747">
        <ele>1644.4</ele>
        <time>2025-07-12T09:58:00Z</time>
        <extensions><gpxtpx:TrackPointExtension><gpxtpx:hr>101</gpxtpx:hr></gpxtpx:TrackPointExtension></extensions>
      </trkpt>
      <trkpt lat="45.862302" lon="6.780968">
        <ele>1639.3</ele>
        <time>2025-07-12T09:59:00Z</time>
        <extensions><gpxtpx:TrackPointExtension><gpxtpx:hr>100</gpxtpx:hr></gpxtpx:TrackPointExtension></extensions>
      </trkpt>
      <trkpt lat="45.862227" lon="6.780328">
        <ele>1632.3</ele>
        <time>2025-07-12T10:00:00Z</time>
        <extensions><gpxtpx:TrackPointExtension><gpxtpx:hr>99</gpxtpx:hr></gpxtpx:TrackPointExtension></extensions>
      </trkpt>
      <trkpt lat="45.861731" lon="6.780216">
        <ele>1626.2</ele>
        <time>2025-07-12T10:01:00Z</time>
        <extensions><gpxtpx:TrackPointExtension><gpxtpx:hr>99</gpxtpx:hr></gpxtpx:TrackPointExtension></extensions>
      </trkpt>
      <trkpt lat="45.861154" lon="6.780124">
        <ele>1619.8</ele>
        <time>2025-07-12T10:02:00Z</time>
        <extensions><gpxtpx:TrackPointExtension><gpxtpx:hr>99</gpxtpx:hr></gpxtpx:TrackPointExtension></extensions>
      </trkpt>
      <trkpt lat="45.860906" lon="6.779670">
        <ele>1611.9</ele>
        <time>2025-07-12T10:03:00Z</time>
        <extensions><gpxtpx:TrackPointExtension><gpxtpx:hr>99</gpxtpx:hr></gpxtpx:TrackPointExtension></extensions>
      </trkpt>
      <trkpt lat="45.861076" lon="6.779152">
        <ele>1606.8</ele>
        <time>2025-07-12T10:04:00Z</time>
        <extensions><gpxtpx:TrackPointExtension><gpxtpx:hr>99</gpxtpx:hr></gpxtpx:TrackPointExtension></extensions>
      </trkpt>
      <trkpt lat="45.861463" lon="6.778611">
        <ele>1605.3</ele>
        <time>2025-07-12T10:05:00Z</time>
        <extensions><gpxtpx:TrackPointExtension><gpxtpx:hr>99</gpxtpx:hr></gpxtpx:TrackPointExtension></extensions>
      </trkpt>
      <trkpt lat="45.861919" lon="6.777997">
        <ele>1603.2</ele>
        <time>2025-07-12T10:06:00Z</time>
        <extensions><gpxtpx:TrackPointExtension><gpxtpx:hr>101</gpxtpx:hr></gpxtpx:TrackPointExtension></extensions>
      </trkpt>
      <trkpt lat="45.862268" lon="6.777466">
        <ele>1600.4</ele>
        <time>2025-07-12T10:07:00Z</time>
        <extensions><gpxtpx:TrackPointExtension><gpxtpx:hr>101</gpxtpx:hr></gpxtpx:TrackPointExtension></extensions>
      </trkpt>
      <trkpt lat="45.862396" lon="6.776794">
        <ele>1594.9</ele>
        <time>2025-07-12T10:08:00Z</time>
        <extensions><gpxtpx:TrackPointExtension><gpxtpx:hr>100</gpxtpx:hr></gpxtpx:TrackPointExtension></extensions>
      </trkpt>
      <trkpt lat="45.861786" lon="6.776946">
        <ele>1589.2</ele>
        <time>2025-07-12T10:09:00Z</time>
        <extensions><gpxtpx:TrackPointExtension><gpxtpx:hr>100</gpxtpx:hr></gpxtpx:TrackPointExtension></extensions>
      </trkpt>
      <trkpt lat="45.861190" lon="6.777148">
        <ele>1585.7</ele>
        <time>2025-07-12T10:10:00Z</time>
        <extensions><gpxtpx:TrackPointExtension><gpxtpx:hr>100</gpxtpx:hr></gpxtpx:TrackPointExtension></extensions>
      </trkpt>
      <trkpt lat="45.860711" lon="6.777336">
        <ele>1581.1</ele>
        <time>2025-07-12T10:11:00Z</time>
        <extensions><gpxtpx:TrackPointExtension><gpxtpx:hr>99</gpxtpx:hr></gpxtpx:TrackPointExtension></extensions>
      </trkpt>
      <trkpt lat="45.860143" lon="6.777574">
        <ele>1576.1</ele>
        <time>2025-07-12T10:12:00Z</time>
        <extensions><gpxtpx:TrackPointExtension><gpxtpx:hr>99</gpxtpx:hr></gpxtpx:TrackPointExtension></extensions>
      </trkpt>
      <trkpt lat="45.859856" lon="6.777265">
        <ele>1566.9</ele>
        <time>2025-07-12T10:13:00Z</time>
        <extensions><gpxtpx:TrackPointExtension><gpxtpx:hr>99</gpxtpx:hr></gpxtpx:TrackPointExtension></extensions>
      </trkpt>
      <trkpt lat="45.860085" lon="6.776575">
        <ele>1562.8</ele>
        <time>2025-07-12T10:14:00Z</time>
        <extensions><gpxtpx:TrackPointExtension><gpxtpx:hr>98</gpxtpx:hr></gpxtpx:TrackPointExtension></extensions>
      </trkpt>
      <trkpt lat="45.859834" lon="6.776340">
        <ele>1557.1</ele>
        <time>2025-07-12T10:15:00Z</time>
        <extensions><gpxtpx:TrackPointExtension><gpxtpx:hr>98</gpxtpx:hr></gpxtpx:TrackPointExtension></extensions>
      </trkpt>
      <trkpt lat="45.859547" lon="6.776030">
        <ele>1547.3</ele>
        <time>2025-07-12T10:16:00Z</time>
        <extensions><gpxtpx:TrackPointExtension><gpxtpx:hr>98</gpxtpx:hr></gpxtpx:TrackPointExtension></extensions>
      </trkpt>
      <trkpt lat="45.859775" lon="6.775384">
        <ele>1542.9</ele>
        <time>2025-07-12T10:17:00Z</time>
        <extensions><gpxtpx:TrackPointExtension><gpxtpx:hr>97</gpxtpx:hr></gpxtpx:TrackPointExtension></extensions>
      </trkpt>
      <trkpt lat="45.859988" lon="6.774758">
        <ele>1538.4</ele>
        <time>2025-07-12T10:18:00Z</time>
        <extensions><gpxtpx:TrackPointExtension><gpxtpx:hr>97</gpxtpx:hr></gpxtpx:TrackPointExtension></extensions>
      </trkpt>
      <trkpt lat="45.860173" lon="6.774101">
        <ele>1532.4</ele>
        <time>2025-07-12T10:19:00Z</time>
        <extensions><gpxtpx:TrackPointExtension><gpxtpx:hr>97</gpxtpx:hr></gpxtpx:TrackPointExtension></extensions>
      </trkpt>
      <trkpt lat="45.860398" lon="6.773402">
        <ele>1527.1</ele>
        <time>2025-07-12T10:20:00Z</time>
        <extensions><gpxtpx:TrackPointExtension><gpxtpx:hr>96</gpxtpx:hr></gpxtpx:TrackPointExtension></extensions>
      </trkpt>
      <trkpt lat="45.859952" lon="6.773387">
        <ele>1519.2</ele>
        <time>2025-07-12T10:21:00Z</time>
        <extensions><gpxtpx:TrackPointExtension><gpxtpx:hr>96</gpxtpx:hr></gpxtpx:TrackPointExtension></extensions>
      </trkpt>
      <trkpt lat="45.859389" lon="6.773782">
        <ele>1517.1</ele>
        <time>2025-07-12T10:22:00Z</time>
        <extensions><gpxtpx:TrackPointExtension><gpxtpx:hr>96</gpxtpx:hr></gpxtpx:TrackPointExtension></extensions>
      </trkpt>
      <trkpt lat="45.858903" lon="6.774117">
        <ele>1513.1</ele>
        <time>2025-07-12T10:23:00Z</time>
        <extensions><gpxtpx:TrackPointExtension><gpxtpx:hr>97</gpxtpx:hr></gpxtpx:TrackPointExtension></extensions>
      </trkpt>
      <trkpt lat="45.858430" lon="6.774424">
        <ele>1512.1</ele>
        <time>2025-07-12T10:24:00Z</time>
        <extensions><gpxtpx:TrackPointExtension><gpxtpx:hr>96</gpxtpx:hr></gpxtpx:TrackPointExtension></extensions>
      </trkpt>
      <trkpt lat="45.857911" lon="6.774413">
        <ele>1504.6</ele>
        <time>2025-07-12T10:25:00Z</time>
        <extensions><gpxtpx:TrackPointExtension><gpxtpx:hr>96</gpxtpx:hr></gpxtpx:TrackPointExtension></extensions>
      </trkpt>
      <trkpt lat="45.857874" lon="6.773875">
        <ele>1496.2</ele>
        <time>2025-07-12T10:26:00Z</time>
        <extensions><gpxtpx:TrackPointExtension><gpxtpx:hr>95</gpxtpx:hr></gpxtpx:TrackPointExtension></extensions>
      </trkpt>
      <trkpt lat="45.858081" lon="6.773196">
        <ele>1490.3</ele>
        <time>2025-07-12T10:27:00Z</time>
        <extensions><gpxtpx:TrackPointExtension><gpxtpx:hr>95</gpxtpx:hr></gpxtpx:TrackPointExtension></extensions>
      </trkpt>
      <trkpt lat="45.858380" lon="6.772580">
        <ele>1487.3</ele>
        <time>2025-07-12T10:28:00Z</time>
        <extensions><gpxtpx:TrackPointExtension><gpxtpx:hr>94</gpxtpx:hr></gpxtpx:TrackPointExtension></extensions>
      </trkpt>
      <trkpt lat="45.858459" lon="6.771884">
        <ele>1481.3</ele>
        <time>2025-07-12T10:29:00Z</time>
        <extensions><gpxtpx:TrackPointExtension><gpxtpx:hr>94</gpxtpx:hr></gpxtpx:TrackPointExtension></extensions>
      </trkpt>
      <trkpt lat="45.858026" lon="6.771737">
        <ele>1471.7</ele>
        <time>2025-07-12T10:30:00Z</time>
        <extensions><gpxtpx:TrackPointExtension><gpxtpx:hr>94</gpxtpx:hr></gpxtpx:TrackPointExtension></extensions>
      </trkpt>
      <trkpt lat="45.858232" lon="6.771108">
        <ele>1468.2</ele>
        <time>2025-07-12T10:31:00Z</time>
        <extensions><gpxtpx:TrackPointExtension><gpxtpx:hr>94</gpxtpx:hr></gpxtpx:TrackPointExtension></extensions>
      </trkpt>
      <trkpt lat="45.858400" lon="6.770501">
        <ele>1464.4</ele>
        <time>2025-07-12T10:32:00Z</time>
        <extensions><gpxtpx:TrackPointExtension><gpxtpx:hr>93</gpxtpx:hr></gpxtpx:TrackPointExtension></extensions>
      </trkpt>
      <trkpt lat="45.857935" lon="6.770421">
        <ele>1454.5</ele>
        <time>2025-07-12T10:33:00Z</time>
        <extensions><gpxtpx:TrackPointExtension><gpxtpx:hr>93</gpxtpx:hr></gpxtpx:TrackPointExtension></extensions>
      </trkpt>
      <trkpt lat="45.857388" lon="6.770513">
        <ele>1449.4</ele>
        <time>2025-07-12T10:34:00Z</time>
        <extensions><gpxtpx:TrackPointExtension><gpxtpx:hr>94</gpxtpx:hr></gpxtpx:TrackPointExtension></extensions>
      </trkpt>
      <trkpt lat="45.856865" lon="6.770709">
        <ele>1446.3</ele>
        <time>2025-07-12T10:35:00Z</time>
        <extensions><gpxtpx:TrackPointExtension><gpxtpx:hr>94</gpxtpx:hr></gpxtpx:TrackPointExtension></extensions>
      </trkpt>
      <trkpt lat="45.856324" lon="6.771030">
        <ele>1440.8</ele>
        <time>2025-07-12T10:36:00Z</time>
        <extensions><gpxtpx:TrackPointExtension><gpxtpx:hr>94</gpxtpx:hr></gpxtpx:TrackPointExtension></extensions>
      </trkpt>
      <trkpt lat="45.855754" lon="6.771240">
        <ele>1437.4</ele>
        <time>2025-07-12T10:37:00Z</time>
        <extensions><gpxtpx:TrackPointExtension><gpxtpx:hr>94</gpxtpx:hr></gpxtpx:TrackPointExtension></extensions>
      </trkpt>
      <trkpt lat="45.855879" lon="6.770716">
        <ele>1431.2</ele>
        <time>2025-07-12T10:38:00Z</time>
        <extensions><gpxtpx:TrackPointExtension><gpxtpx:hr>94</gpxtpx:hr></gpxtpx:TrackPointExtension></extensions>
      </trkpt>
      <trkpt lat="45.856264" lon="6.770032">
        <ele>1430.0</ele>
        <time>2025-07-12T10:39:00Z</time>
        <extensions><gpxtpx:TrackPointExtension><gpxtpx:hr>95</gpxtpx:hr></gpxtpx:TrackPointExtension></extensions>
      </trkpt>
      <trkpt lat="45.856634" lon="6.769416">
        <ele>1427.3</ele>
        <time>2025-07-12T10:40:00Z</time>
        <extensions><gpxtpx:TrackPointExtension><gpxtpx:hr>95</gpxtpx:hr></gpxtpx:TrackPointExtension></extensions>
      </trkpt>
      <trkpt lat="45.856939" lon="6.768707">
        <ele>1423.9</ele>
        <time>2025-07-12T10:41:00Z</time>
        <extensions><gpxtpx:TrackPointExtension><gpxtpx:hr>95</gpxtpx:hr></gpxtpx:TrackPointExtension></extensions>
      </trkpt>
      <trkpt lat="45.857036" lon="6.767946">
        <ele>1415.2</ele>
        <time>2025-07-12T10:42:00Z</time>
        <extensions><gpxtpx:TrackPointExtension><gpxtpx:hr>96</gpxtpx:hr></gpxtpx:TrackPointExtension></extensions>
      </trkpt>
      <trkpt lat="45.856727" lon="6.767737">
        <ele>1406.8</ele>
        <time>2025-07-12T10:43:00Z</time>
        <extensions><gpxtpx:TrackPointExtension><gpxtpx:hr>96</gpxtpx:hr></gpxtpx:TrackPointExtension></extensions>
      </trkpt>
      <trkpt lat="45.856110" lon="6.767904">
        <ele>1399.0</ele>
        <time>2025-07-12T10:44:00Z</time>
        <extensions><gpxtpx:TrackPointExtension><gpxtpx:hr>97</gpxtpx:hr></gpxtpx:TrackPointExtension></extensions>
      </trkpt>
      <trkpt lat="45.855988" lon="6.767451">
        <ele>1393.0</ele>
        <time>2025-07-12T10:45:00Z</time>
        <extensions><gpxtpx:TrackPointExtension><gpxtpx:hr>97</gpxtpx:hr></gpxtpx:TrackPointExtension></extensions>
      </trkpt>
      <trkpt lat="45.855810" lon="6.767121">
        <ele>1385.3</ele>
        <time>2025-07-12T10:46:00Z</time>
        <extensions><gpxtpx:TrackPointExtension><gpxtpx:hr>97</gpxtpx:hr></gpxtpx:TrackPointExtension></extensions>
      </trkpt>
      <trkpt lat="45.855313" lon="6.767287">
        <ele>1380.5</ele>
        <time>2025-07-12T10:47:00Z</time>
        <extensions><gpxtpx:TrackPointExtension><gpxtpx:hr>98</gpxtpx:hr></gpxtpx:TrackPointExtension></extensions>
      </trkpt>
      <trkpt lat="45.854718" lon="6.767472">
        <ele>1374.9</ele>
        <time>2025-07-12T10:48:00Z</time>
        <extensions><gpxtpx:TrackPointExtension><gpxtpx:hr>98</gpxtpx:hr></gpxtpx:TrackPointExtension></extensions>
      </trkpt>
      <trkpt lat="45.854423" lon="6.767201">
        <ele>1369.7</ele>
        <time>2025-07-12T10:49:00Z</time>
        <extensions><gpxtpx:TrackPointExtension><gpxtpx:hr>98</gpxtpx:hr></gpxtpx:TrackPointExtension></extensions>
      </trkpt>
      <trkpt lat="45.854413" lon="6.766669">
        <ele>1362.4</ele>
        <time>2025-07-12T10:50:00Z</time>
        <extensions><gpxtpx:TrackPointExtension><gpxtpx:hr>98</gpxtpx:hr></gpxtpx:TrackPointExtension></extensions>
      </trkpt>
      <trkpt lat="45.854744" lon="6.766067">
        <ele>1357.1</ele>
        <time>2025-07-12T10:51:00Z</time>
        <extensions><gpxtpx:TrackPointExtension><gpxtpx:hr>98</gpxtpx:hr></gpxtpx:TrackPointExtension></extensions>
      </trkpt>
      <trkpt lat="45.855163" lon="6.765403">
        <ele>1357.7</ele>
        <time>2025-07-12T10:52:00Z</time>
        <extensions><gpxtpx:TrackPointExtension><gpxtpx:hr>99</gpxtpx:hr></gpxtpx:TrackPointExtension></extensions>
      </trkpt>
      <trkpt lat="45.855584" lon="6.764755">
        <ele>1353.4</ele>
        <time>2025-07-12T10:53:00Z</time>
        <extensions><gpxtpx:TrackPointExtension><gpxtpx:hr>99</gpxtpx:hr></gpxtpx:TrackPointExtension></extensions>
      </trkpt>
      <trkpt lat="45.855810" lon="6.764082">
        <ele>1350.4</ele>
        <time>2025-07-12T10:54:00Z</time>
        <extensions><gpxtpx:TrackPointExtension><gpxtpx:hr>99</gpxtpx:hr></gpxtpx:TrackPointExtension></extensions>
      </trkpt>
      <trkpt lat="45.855357" lon="6.764169">
        <ele>1345.2</ele>
        <time>2025-07-12T10:55:00Z</time>
        <extensions><gpxtpx:TrackPointExtension><gpxtpx:hr>99</gpxtpx:hr></gpxtpx:TrackPointExtension></extensions>
      </trkpt>
      <trkpt lat="45.854761" lon="6.764360">
        <ele>1342.5</ele>
        <time>2025-07-12T10:56:00Z</time>
        <extensions><gpxtpx:TrackPointExtension><gpxtpx:hr>99</gpxtpx:hr></gpxtpx:TrackPointExtension></extensions>
      </trkpt>
      <trkpt lat="45.854186" lon="6.764430">
        <ele>1335.5</ele>
        <time>2025-07-12T10:57:00Z</time>
        <extensions><gpxtpx:TrackPointExtension><gpxtpx:hr>98</gpxtpx:hr></gpxtpx:TrackPointExtension></extensions>
      </trkpt>
      <trkpt lat="45.853582" lon="6.764554">
        <ele>1332.3</ele>
        <time>2025-07-12T10:58:00Z</time>
        <extensions><gpxtpx:TrackPointExtension><gpxtpx:hr>98</gpxtpx:hr></gpxtpx:TrackPointExtension></extensions>
      </trkpt>
      <trkpt lat="45.853593" lon="6.763814">
        <ele>1327.1</ele>
        <time>2025-07-12T10:59:00Z</time>
        <extensions><gpxtpx:TrackPointExtension><gpxtpx:hr>98</gpxtpx:hr></gpxtpx:TrackPointExtension></extensions>
      </trkpt>
      <trkpt lat="45.853151" lon="6.763571">
        <ele>1321.9</ele>
        <time>2025-07-12T11:00:00Z</time>
        <extensions><gpxtpx:TrackPointExtension><gpxtpx:hr>98</gpxtpx:hr></gpxtpx:TrackPointExtension></extensions>
      </trkpt>
      <trkpt lat="45.852945" lon="6.763122">
        <ele>1316.4</ele>
        <time>2025-07-12T11:01:00Z</time>
        <extensions><gpxtpx:TrackPointExtension><gpxtpx:hr>98</gpxtpx:hr></gpxtpx:TrackPointExtension></extensions>
      </trkpt>
      <trkpt lat="45.853246" lon="6.762462">
        <ele>1312.7</ele>
        <time>2025-07-12T11:02:00Z</time>
        <extensions><gpxtpx:TrackPointExtension><gpxtpx:hr>98</gpxtpx:hr></gpxtpx:TrackPointExtension></extensions>
      </trkpt>
      <trkpt lat="45.853509" lon="6.761663">
        <ele>1312.6</ele>
        <time>2025-07-12T11:03:00Z</time>
        <extensions><gpxtpx:TrackPointExtension><gpxtpx:hr>97</gpxtpx:hr></gpxtpx:TrackPointExtension></extensions>
      </trkpt>
      <trkpt lat="45.853677" lon="6.760914">
        <ele>1307.6</ele>
        <time>2025-07-12T11:04:00Z</time>
        <extensions><gpxtpx:TrackPointExtension><gpxtpx:hr>97</gpxtpx:hr></gpxtpx:TrackPointExtension></extensions>
      </trkpt>
      <trkpt lat="45.853309" lon="6.760698">
        <ele>1306.3</ele>
        <time>2025-07-12T11:05:00Z</time>
        <extensions><gpxtpx:TrackPointExtension><gpxtpx:hr>96</gpxtpx:hr></gpxtpx:TrackPointExtension></extensions>
      </trkpt>
      <trkpt lat="45.852768" lon="6.761001">
        <ele>1303.3</ele>
        <time>2025-07-12T11:06:00Z</time>
        <extensions><gpxtpx:TrackPointExtension><gpxtpx:hr>97</gpxtpx:hr></gpxtpx:TrackPointExtension></extensions>
      </trkpt>
      <trkpt lat="45.852261" lon="6.761281">
        <ele>1301.1</ele>
        <time>2025-07-12T11:07:00Z</time>
        <extensions><gpxtpx:TrackPointExtension><gpxtpx:hr>99</gpxtpx:hr></gpxtpx:TrackPointExtension></extensions>
      </trkpt>
      <trkpt lat="45.851766" lon="6.761417">
        <ele>1298.4</ele>
        <time>2025-07-12T11:08:00Z</time>
        <extensions><gpxtpx:TrackPointExtension><gpxtpx:hr>97</gpxtpx:hr></gpxtpx:TrackPointExtension></extensions>
      </trkpt>
      <trkpt lat="45.851662" lon="6.760674">
        <ele>1296.2</ele>
        <time>2025-07-12T11:09:00Z</time>
        <extensions><gpxtpx:TrackPointExtension><gpxtpx:hr>96</gpxtpx:hr></gpxtpx:TrackPointExtension></extensions>
      </trkpt>
      <trkpt lat="45.851756" lon="6.759886">
        <ele>1292.3</ele>
        <time>2025-07-12T11:10:00Z</time>
        <extensions><gpxtpx:TrackPointExtension><gpxtpx:hr>96</gpxtpx:hr></gpxtpx:TrackPointExtension></extensions>
      </trkpt>
      <trkpt lat="45.851688" lon="6.759212">
        <ele>1289.2</ele>
        <time>2025-07-12T11:11:00Z</time>
        <extensions><gpxtpx:TrackPointExtension><gpxtpx:hr>95</gpxtpx:hr></gpxtpx:TrackPointExtension></extensions>
      </trkpt>
      <trkpt lat="45.851529" lon="6.758624">
        <ele>1285.9</ele>
        <time>2025-07-12T11:12:00Z</time>
        <extensions><gpxtpx:TrackPointExtension><gpxtpx:hr>94</gpxtpx:hr></gpxtpx:TrackPointExtension></extensions>
      </trkpt>
      <trkpt lat="45.851792" lon="6.757829">
        <ele>1282.2</ele>
        <time>2025-07-12T11:13:00Z</time>
        <extensions><gpxtpx:TrackPointExtension><gpxtpx:hr>95</gpxtpx:hr></gpxtpx:TrackPointExtension></extensions>
      </trkpt>
      <trkpt lat="45.851428" lon="6.757569">
        <ele>1279.9</ele>
        <time>2025-07-12T11:14:00Z</time>
        <extensions><gpxtpx:TrackPointExtension><gpxtpx:hr>95</gpxtpx:hr></gpxtpx:TrackPointExtension></extensions>
      </trkpt>
      <trkpt lat="45.850816" lon="6.757667">
        <ele>1274.3</ele>
        <time>2025-07-12T11:15:00Z</time>
        <extensions><gpxtpx:TrackPointExtension><gpxtpx:hr>95</gpxtpx:hr></gpxtpx:TrackPointExtension></extensions>
      </trkpt>
      <trkpt lat="45.850272" lon="6.757825">
        <ele>1273.3</ele>
        <time>2025-07-12T11:16:00Z</time>
        <extensions><gpxtpx:TrackPointExtension><gpxtpx:hr>95</gpxtpx:hr></gpxtpx:TrackPointExtension></extensions>
      </trkpt>
      <trkpt lat="45.849682" lon="6.757949">
        <ele>1273.7</ele>
        <time>2025-07-12T11:17:00Z</time>
        <extensions><gpxtpx:TrackPointExtension><gpxtpx:hr>94</gpxtpx:hr></gpxtpx:TrackPointExtension></extensions>
      </trkpt>
      <trkpt lat="45.849804" lon="6.757275">
        <ele>1268.8</ele>
        <time>2025-07-12T11:18:00Z</time>
        <extensions><gpxtpx:TrackPointExtension><gpxtpx:hr>96</gpxtpx:hr></gpxtpx:TrackPointExtension></extensions>
      </trkpt>
      <trkpt lat="45.850103" lon="6.756632">
        <ele>1266.7</ele>
        <time>2025-07-12T11:19:00Z</time>
        <extensions><gpxtpx:TrackPointExtension><gpxtpx:hr>95</gpxtpx:hr></gpxtpx:TrackPointExtension></extensions>
      </trkpt>
      <trkpt lat="45.850221" lon="6.755830">
        <ele>1265.0</ele>
        <time>2025-07-12T11:20:00Z</time>
        <extensions><gpxtpx:TrackPointExtension><gpxtpx:hr>95</gpxtpx:hr></gpxtpx:TrackPointExtension></extensions>
      </trkpt>
      <trkpt lat="45.849993" lon="6.755116">
        <ele>1261.8</ele>
        <time>2025-07-12T11:21:00Z</time>
        <extensions><gpxtpx:TrackPointExtension><gpxtpx:hr>95</gpxtpx:hr></gpxtpx:TrackPointExtension></extensions>
      </trkpt>
      <trkpt lat="45.849482" lon="6.754849">
        <ele>1260.0</ele>
        <time>2025-07-12T11:22:00Z</time>
        <extensions><gpxtpx:TrackPointExtension><gpxtpx:hr>95</gpxtpx:hr></gpxtpx:TrackPointExtension></extensions>
      </trkpt>
      <trkpt lat="45.849273" lon="6.754257">
        <ele>1255.4</ele>
        <time>2025-07-12T11:23:00Z</time>
        <extensions><gpxtpx:TrackPointExtension><gpxtpx:hr>95</gpxtpx:hr></gpxtpx:TrackPointExtension></extensions>
      </trkpt>
      <trkpt lat="45.848669" lon="6.754476">
        <ele>1252.8</ele>
        <time>2025-07-12T11:24:00Z</time>
        <extensions><gpxtpx:TrackPointExtension><gpxtpx:hr>96</gpxtpx:hr></gpxtpx:TrackPointExtension></extensions>
      </trkpt>
      <trkpt lat="45.848115" lon="6.754537">
        <ele>1252.3</ele>
        <time>2025-07-12T11:25:00Z</time>
        <extensions><gpxtpx:TrackPointExtension><gpxtpx:hr>96</gpxtpx:hr></gpxtpx:TrackPointExtension></extensions>
      </trkpt>
      <trkpt lat="45.848032" lon="6.753778">
        <ele>1247.2</ele>
        <time>2025-07-12T11:26:00Z</time>
        <extensions><gpxtpx:TrackPointExtension><gpxtpx:hr>97</gpxtpx:hr></gpxtpx:TrackPointExtension></extensions>
      </trkpt>
      <trkpt lat="45.848256" lon="6.753065">
        <ele>1244.8</ele>
        <time>2025-07-12T11:27:00Z</time>
        <extensions><gpxtpx:TrackPointExtension><gpxtpx:hr>98</gpxtpx:hr></gpxtpx:TrackPointExtension></extensions>
      </trkpt>
      <trkpt lat="45.848521" lon="6.752363">
        <ele>1244.5</ele>
        <time>2025-07-12T11:28:00Z</time>
        <extensions><gpxtpx:TrackPointExtension><gpxtpx:hr>98</gpxtpx:hr></gpxtpx:TrackPointExtension></extensions>
      </trkpt>
      <trkpt lat="45.848514" lon="6.751686">
        <ele>1242.6</ele>
        <time>2025-07-12T11:29:00Z</time>
        <extensions><gpxtpx:TrackPointExtension><gpxtpx:hr>98</gpxtpx:hr></gpxtpx:TrackPointExtension></extensions>
      </trkpt>
      <trkpt lat="45.847954" lon="6.751878">
        <ele>1240.1</ele>
        <time>2025-07-12T11:30:00Z</time>
        <extensions><gpxtpx:TrackPointExtension><gpxtpx:hr>99</gpxtpx:hr></gpxtpx:TrackPointExtension></extensions>
      </trkpt>
      <trkpt lat="45.847451" lon="6.751781">
        <ele>1237.2</ele>
        <time>2025-07-12T11:31:00Z</time>
        <extensions><gpxtpx:TrackPointExtension><gpxtpx:hr>99</gpxtpx:hr></gpxtpx:TrackPointExtension></extensions>
      </trkpt>
      <trkpt lat="45.846884" lon="6.751693">
        <ele>1231.3</ele>
        <time>2025-07-12T11:32:00Z</time>
        <extensions><gpxtpx:TrackPointExtension><gpxtpx:hr>99</gpxtpx:hr></gpxtpx:TrackPointExtension></extensions>
      </trkpt>
      <trkpt lat="45.846496" lon="6.751281">
        <ele>1227.1</ele>
        <time>2025-07-12T11:33:00Z</time>
        <extensions><gpxtpx:TrackPointExtension><gpxtpx:hr>99</gpxtpx:hr></gpxtpx:TrackPointExtension></extensions>
      </trkpt>
      <trkpt lat="45.845982" lon="6.751354">
        <ele>1223.5</ele>
        <time>2025-07-12T11:34:00Z</time>
        <extensions><gpxtpx:TrackPointExtension><gpxtpx:hr>99</gpxtpx:hr></gpxtpx:TrackPointExtension></extensions>
      </trkpt>
      <trkpt lat="45.846100" lon="6.750542">
        <ele>1222.9</ele>
        <time>2025-07-12T11:35:00Z</time>
        <extensions><gpxtpx:TrackPointExtension><gpxtpx:hr>99</gpxtpx:hr></gpxtpx:TrackPointExtension></extensions>
      </trkpt>
      <trkpt lat="45.846284" lon="6.749728">
        <ele>1222.7</ele>
        <time>2025-07-12T11:36:00Z</time>
        <extensions><gpxtpx:TrackPointExtension><gpxtpx:hr>99</gpxtpx:hr></gpxtpx:TrackPointExtension></extensions>
      </trkpt>
      <trkpt lat="45.846338" lon="6.748925">
        <ele>1217.8</ele>
        <time>2025-07-12T11:37:00Z</time>
        <extensions><gpxtpx:TrackPointExtension><gpxtpx:hr>99</gpxtpx:hr></gpxtpx:TrackPointExtension></extensions>
      </trkpt>
      <trkpt lat="45.845955" lon="6.748640">
        <ele>1214.9</ele>
        <time>2025-07-12T11:38:00Z</time>
        <extensions><gpxtpx:TrackPointExtension><gpxtpx:hr>99</gpxtpx:hr></gpxtpx:TrackPointExtension></extensions>
      </trkpt>
      <trkpt lat="45.845450" lon="6.749025">
        <ele>1211.9</ele>
        <time>2025-07-12T11:39:00Z</time>
        <extensions><gpxtpx:TrackPointExtension><gpxtpx:hr>101</gpxtpx:hr></gpxtpx:TrackPointExtension></extensions>
      </trkpt>
      <trkpt lat="45.844976" lon="6.749379">
        <ele>1212.0</ele>
        <time>2025-07-12T11:40:00Z</time>
        <extensions><gpxtpx:TrackPointExtension><gpxtpx:hr>100</gpxtpx:hr></gpxtpx:TrackPointExtension></extensions>
      </trkpt>
      <trkpt lat="45.844626" lon="6.749029">
        <ele>1208.6</ele>
        <time>2025-07-12T11:41:00Z</time>
        <extensions><gpxtpx:TrackPointExtension><gpxtpx:hr>100</gpxtpx:hr></gpxtpx:TrackPointExtension></extensions>
      </trkpt>
      <trkpt lat="45.844383" lon="6.748381">
        <ele>1206.7</ele>
        <time>2025-07-12T11:42:00Z</time>
        <extensions><gpxtpx:TrackPointExtension><gpxtpx:hr>99</gpxtpx:hr></gpxtpx:TrackPointExtension></extensions>
      </trkpt>
      <trkpt lat="45.844170" lon="6.747692">
        <ele>1205.0</ele>
        <time>2025-07-12T11:43:00Z</time>
        <extensions><gpxtpx:TrackPointExtension><gpxtpx:hr>99</gpxtpx:hr></gpxtpx:TrackPointExtension></extensions>
      </trkpt>
      <trkpt lat="45.843924" lon="6.747118">
        <ele>1202.4</ele>
        <time>2025-07-12T11:44:00Z</time>
        <extensions><gpxtpx:TrackPointExtension><gpxtpx:hr>101</gpxtpx:hr></gpxtpx:TrackPointExtension></extensions>
      </trkpt>
      <trkpt lat="45.844004" lon="6.746432">
        <ele>1200.9</ele>
        <time>2025-07-12T11:45:00Z</time>
        <extensions><gpxtpx:TrackPointExtension><gpxtpx:hr>100</gpxtpx:hr></gpxtpx:TrackPointExtension></extensions>
      </trkpt>
      <trkpt lat="45.843561" lon="6.746153">
        <ele>1201.7</ele>
        <time>2025-07-12T11:46:00Z</time>
        <extensions><gpxtpx:TrackPointExtension><gpxtpx:hr>99</gpxtpx:hr></gpxtpx:TrackPointExtension></extensions>
      </trkpt>
      <trkpt lat="45.842962" lon="6.746282">
        <ele>1199.6</ele>
        <time>2025-07-12T11:47:00Z</time>
        <extensions><gpxtpx:TrackPointExtension><gpxtpx:hr>98</gpxtpx:hr></gpxtpx:TrackPointExtension></extensions>
      </trkpt>
      <trkpt lat="45.842391" lon="6.746291">
        <ele>1198.4</ele>
        <time>2025-07-12T11:48:00Z</time>
        <extensions><gpxtpx:TrackPointExtension><gpxtpx:hr>99</gpxtpx:hr></gpxtpx:TrackPointExtension></extensions>
      </trkpt>
      <trkpt lat="45.842358" lon="6.745590">
        <ele>1197.2</ele>
        <time>2025-07-12T11:49:00Z</time>
        <extensions><gpxtpx:TrackPointExtension><gpxtpx:hr>98</gpxtpx:hr></gpxtpx:TrackPointExtension></extensions>
      </trkpt>
      <trkpt lat="45.842225" lon="6.744878">
        <ele>1195.5</ele>
        <time>2025-07-12T11:50:00Z</time>
        <extensions><gpxtpx:TrackPointExtension><gpxtpx:hr>99</gpxtpx:hr></gpxtpx:TrackPointExtension></extensions>
      </trkpt>
      <trkpt lat="45.841974" lon="6.744359">
        <ele>1194.6</ele>
        <time>2025-07-12T11:51:00Z</time>
        <extensions><gpxtpx:TrackPointExtension><gpxtpx:hr>100</gpxtpx:hr></gpxtpx:TrackPointExtension></extensions>
      </trkpt>
      <trkpt lat="45.841641" lon="6.743946">
        <ele>1194.9</ele>
        <time>2025-07-12T11:52:00Z</time>
        <extensions><gpxtpx:TrackPointExtension><gpxtpx:hr>100</gpxtpx:hr></gpxtpx:TrackPointExtension></extensions>
      </trkpt>
      <trkpt lat="45.841365" lon="6.743406">
        <ele>1196.4</ele>
        <time>2025-07-12T11:53:00Z</time>
        <extensions><gpxtpx:TrackPointExtension><gpxtpx:hr>99</gpxtpx:hr></gpxtpx:TrackPointExtension></extensions>
      </trkpt>
      <trkpt lat="45.840864" lon="6.743430">
        <ele>1194.3</ele>
        <time>2025-07-12T11:54:00Z</time>
        <extensions><gpxtpx:TrackPointExtension><gpxtpx:hr>98</gpxtpx:hr></gpxtpx:TrackPointExtension></extensions>
      </trkpt>
      <trkpt lat="45.840332" lon="6.743526">
        <ele>1192.8</ele>
        <time>2025-07-12T11:55:00Z</time>
        <extensions><gpxtpx:TrackPointExtension><gpxtpx:hr>97</gpxtpx:hr></gpxtpx:TrackPointExtension></extensions>
      </trkpt>
      <trkpt lat="45.840057" lon="6.742948">
        <ele>1192.8</ele>
        <time>2025-07-12T11:56:00Z</time>
        <extensions><gpxtpx:TrackPointExtension><gpxtpx:hr>96</gpxtpx:hr></gpxtpx:TrackPointExtension></extensions>
      </trkpt>
      <trkpt lat="45.840106" lon="6.742145">
        <ele>1192.0</ele>
        <time>2025-07-12T11:57:00Z</time>
        <extensions><gpxtpx:TrackPointExtension><gpxtpx:hr>97</gpxtpx:hr></gpxtpx:TrackPointExtension></extensions>
      </trkpt>
      <trkpt lat="45.840105" lon="6.741419">
        <ele>1190.9</ele>
        <time>2025-07-12T11:58:00Z</time>
        <extensions><gpxtpx:TrackPointExtension><gpxtpx:hr>96</gpxtpx:hr></gpxtpx:TrackPointExtension></extensions>
      </trkpt>
      <trkpt lat="45.839554" lon="6.741447">
        <ele>1190.2</ele>
        <time>2025-07-12T11:59:00Z</time>
        <extensions><gpxtpx:TrackPointExtension><gpxtpx:hr>96</gpxtpx:hr></gpxtpx:TrackPointExtension></extensions>
      </trkpt>
      <trkpt lat="45.839111" lon="6.741137">
        <ele>1188.0</ele>
        <time>2025-07-12T12:00:00Z</time>
        <extensions><gpxtpx:TrackPointExtension><gpxtpx:hr>96</gpxtpx:hr></gpxtpx:TrackPointExtension></extensions>
      </trkpt>
      <trkpt lat="45.838619" lon="6.740967">
        <ele>1184.1</ele>
        <time>2025-07-12T12:01:00Z</time>
        <extensions><gpxtpx:TrackPointExtension><gpxtpx:hr>95</gpxtpx:hr></gpxtpx:TrackPointExtension></extensions>
      </trkpt>
      <trkpt lat="45.838075" lon="6.740927">
        <ele>1183.9</ele>
        <time>2025-07-12T12:02:00Z</time>
        <extensions><gpxtpx:TrackPointExtension><gpxtpx:hr>95</gpxtpx:hr></gpxtpx:TrackPointExtension></extensions>
      </trkpt>
      <trkpt lat="45.837696" lon="6.740623">
        <ele>1183.5</ele>
        <time>2025-07-12T12:03:00Z</time>
        <extensions><gpxtpx:TrackPointExtension><gpxtpx:hr>95</gpxtpx:hr></gpxtpx:TrackPointExtension></extensions>
      </trkpt>
      <trkpt lat="45.837745" lon="6.739747">
        <ele>1182.0</ele>
        <time>2025-07-12T12:04:00Z</time>
        <extensions><gpxtpx:TrackPointExtension><gpxtpx:hr>98</gpxtpx:hr></gpxtpx:TrackPointExtension></extensions>
      </trkpt>
      <trkpt lat="45.837685" lon="6.739090">
        <ele>1179.3</ele>
        <time>2025-07-12T12:05:00Z</time>
        <extensions><gpxtpx:TrackPointExtension><gpxtpx:hr>97</gpxtpx:hr></gpxtpx:TrackPointExtension></extensions>
      </trkpt>
      <trkpt lat="45.837289" lon="6.738656">
        <ele>1180.3</ele>
        <time>2025-07-12T12:06:00Z</time>
        <extensions><gpxtpx:TrackPointExtension><gpxtpx:hr>97</gpxtpx:hr></gpxtpx:TrackPointExtension></extensions>
      </trkpt>
      <trkpt lat="45.836742" lon="6.739059">
        <ele>1176.6</ele>
        <time>2025-07-12T12:07:00Z</time>
        <extensions><gpxtpx:TrackPointExtension><gpxtpx:hr>98</gpxtpx:hr></gpxtpx:TrackPointExtension></extensions>
      </trkpt>
      <trkpt lat="45.836282" lon="6.739131">
        <ele>1176.1</ele>
        <time>2025-07-12T12:08:00Z</time>
        <extensions><gpxtpx:TrackPointExtension><gpxtpx:hr>97</gpxtpx:hr></gpxtpx:TrackPointExtension></extensions>
      </trkpt>
      <trkpt lat="45.835905" lon="6.738629">
        <ele>1174.6</ele>
        <time>2025-07-12T12:09:00Z</time>
        <extensions><gpxtpx:TrackPointExtension><gpxtpx:hr>100</gpxtpx:hr></gpxtpx:TrackPointExtension></extensions>
      </trkpt>
      <trkpt lat="45.835580" lon="6.738220">
        <ele>1172.8</ele>
        <time>2025-07-12T12:10:00Z</time>
        <extensions><gpxtpx:TrackPointExtension><gpxtpx:hr>101</gpxtpx:hr></gpxtpx:TrackPointExtension></extensions>
      </trkpt>
      <trkpt lat="45.835225" lon="6.737819">
        <ele>1171.5</ele>
        <time>2025-07-12T12:11:00Z</time>
        <extensions><gpxtpx:TrackPointExtension><gpxtpx:hr>100</gpxtpx:hr></gpxtpx:TrackPointExtension></extensions>
      </trkpt>
      <trkpt lat="45.835190" lon="6.737006">
        <ele>1168.1</ele>
        <time>2025-07-12T12:12:00Z</time>
        <extensions><gpxtpx:TrackPointExtension><gpxtpx:hr>100</gpxtpx:hr></gpxtpx:TrackPointExtension></extensions>
      </trkpt>
      <trkpt lat="45.835045" lon="6.736291">
        <ele>1166.5</ele>
        <time>2025-07-12T12:13:00Z</time>
        <extensions><gpxtpx:TrackPointExtension><gpxtpx:hr>101</gpxtpx:hr></gpxtpx:TrackPointExtension></extensions>
      </trkpt>
      <trkpt lat="45.834562" lon="6.736593">
        <ele>1167.9</ele>
        <time>2025-07-12T12:14:00Z</time>
        <extensions><gpxtpx:TrackPointExtension><gpxtpx:hr>100</gpxtpx:hr></gpxtpx:TrackPointExtension></extensions>
      </trkpt>
      <trkpt lat="45.834018" lon="6.736918">
        <ele>1165.0</ele>
        <time>2025-07-12T12:15:00Z</time>
        <extensions><gpxtpx:TrackPointExtension><gpxtpx:hr>100</gpxtpx:hr></gpxtpx:TrackPointExtension></extensions>
      </trkpt>
      <trkpt lat="45.833478" lon="6.737015">
        <ele>1163.0</ele>
        <time>2025-07-12T12:16:00Z</time>
        <extensions><gpxtpx:TrackPointExtension><gpxtpx:hr>100</gpxtpx:hr></gpxtpx:TrackPointExtension></extensions>
      </trkpt>
      <trkpt lat="45.833417" lon="6.736227">
        <ele>1162.8</ele>
        <time>2025-07-12T12:17:00Z</time>
        <extensions><gpxtpx:TrackPointExtension><gpxtpx:hr>101</gpxtpx:hr></gpxtpx:TrackPointExtension></extensions>
      </trkpt>
      <trkpt lat="45.833137" lon="6.735728">
        <ele>1160.8</ele>
        <time>2025-07-12T12:18:00Z</time>
        <extensions><gpxtpx:TrackPointExtension><gpxtpx:hr>100</gpxtpx:hr></gpxtpx:TrackPointExtension></extensions>
      </trkpt>
      <trkpt lat="45.832771" lon="6.735147">
        <ele>1161.1</ele>
        <time>2025-07-12T12:19:00Z</time>
        <extensions><gpxtpx:TrackPointExtension><gpxtpx:hr>100</gpxtpx:hr></gpxtpx:TrackPointExtension></extensions>
      </trkpt>
      <trkpt lat="45.832418" lon="6.734650">
        <ele>1160.1</ele>
        <time>2025-07-12T12:20:00Z</time>
        <extensions><gpxtpx:TrackPointExtension><gpxtpx:hr>101</gpxtpx:hr></gpxtpx:TrackPointExtension></extensions>
      </trkpt>
      <trkpt lat="45.832002" lon="6.734359">
        <ele>1156.4</ele>
        <time>2025-07-12T12:21:00Z</time>
        <extensions><gpxtpx:TrackPointExtension><gpxtpx:hr>102</gpxtpx:hr></gpxtpx:TrackPointExtension></extensions>
      </trkpt>
      <trkpt lat="45.831568" lon="6.734755">
        <ele>1156.7</ele>
        <time>2025-07-12T12:22:00Z</time>
        <extensions><gpxtpx:TrackPointExtension><gpxtpx:hr>101</gpxtpx:hr></gpxtpx:TrackPointExtension></extensions>
      </trkpt>
      <trkpt lat="45.831064" lon="6.734873">
        <ele>1155.3</ele>
        <time>2025-07-12T12:23:00Z</time>
        <extensions><gpxtpx:TrackPointExtension><gpxtpx:hr>102</gpxtpx:hr></gpxtpx:TrackPointExtension></extensions>
      </trkpt>
      <trkpt lat="45.830797" lon="6.734294">
        <ele>1153.8</ele>
        <time>2025-07-12T12:24:00Z</time>
        <extensions><gpxtpx:TrackPointExtension><gpxtpx:hr>103</gpxtpx:hr></gpxtpx:TrackPointExtension></extensions>
      </trkpt>
      <trkpt lat="45.830710" lon="6.733553">
        <ele>1155.9</ele>
        <time>2025-07-12T12:25:00Z</time>
        <extensions><gpxtpx:TrackPointExtension><gpxtpx:hr>104</gpxtpx:hr></gpxtpx:TrackPointExtension></extensions>
      </trkpt>
      <trkpt lat="45.830474" lon="6.733038">
        <ele>1155.2</ele>
        <time>2025-07-12T12:26:00Z</time>
        <extensions><gpxtpx:TrackPointExtension><gpxtpx:hr>104</gpxtpx:hr></gpxtpx:TrackPointExtension></extensions>
      </trkpt>
      <trkpt lat="45.829987" lon="6.733155">
        <ele>1153.8</ele>
        <time>2025-07-12T12:27:00Z</time>
        <extensions><gpxtpx:TrackPointExtension><gpxtpx:hr>105</gpxtpx:hr></gpxtpx:TrackPointExtension></extensions>
      </trkpt>
      <trkpt lat="45.829634" lon="6.732766">
        <ele>1153.2</ele>
        <time>2025-07-12T12:28:00Z</time>
        <extensions><gpxtpx:TrackPointExtension><gpxtpx:hr>105</gpxtpx:hr></gpxtpx:TrackPointExtension></extensions>
      </trkpt>
      <trkpt lat="45.829163" lon="6.732732">
        <ele>1153.1</ele>
        <time>2025-07-12T12:29:00Z</time>
        <extensions><gpxtpx:TrackPointExtension><gpxtpx:hr>103</gpxtpx:hr></gpxtpx:TrackPointExtension></extensions>
      </trkpt>
      <trkpt lat="45.828646" lon="6.732729">
        <ele>1152.8</ele>
        <time>2025-07-12T12:30:00Z</time>
        <extensions><gpxtpx:TrackPointExtension><gpxtpx:hr>102</gpxtpx:hr></gpxtpx:TrackPointExtension></extensions>
      </trkpt>
      <trkpt lat="45.828251" lon="6.732487">
        <ele>1152.3</ele>
        <time>2025-07-12T12:31:00Z</time>
        <extensions><gpxtpx:TrackPointExtension><gpxtpx:hr>103</gpxtpx:hr></gpxtpx:TrackPointExtension></extensions>
      </trkpt>
      <trkpt lat="45.828170" lon="6.731807">
        <ele>1152.2</ele>
        <time>2025-07-12T12:32:00Z</time>
        <extensions><gpxtpx:TrackPointExtension><gpxtpx:hr>102</gpxtpx:hr></gpxtpx:TrackPointExtension></extensions>
      </trkpt>
      <trkpt lat="45.827901" lon="6.731173">
        <ele>1153.8</ele>
        <time>2025-07-12T12:33:00Z</time>
        <extensions><gpxtpx:TrackPointExtension><gpxtpx:hr>103</gpxtpx:hr></gpxtpx:TrackPointExtension></extensions>
      </trkpt>
      <trkpt lat="45.827533" lon="6.730919">
        <ele>1153.8</ele>
        <time>2025-07-12T12:34:00Z</time>
        <extensions><gpxtpx:TrackPointExtension><gpxtpx:hr>103</gpxtpx:hr></gpxtpx:TrackPointExtension></extensions>
      </trkpt>
      <trkpt lat="45.827057" lon="6.731187">
        <ele>1152.7</ele>
        <time>2025-07-12T12:35:00Z</time>
        <extensions><gpxtpx:TrackPointExtension><gpxtpx:hr>103</gpxtpx:hr></gpxtpx:TrackPointExtension></extensions>
      </trkpt>
      <trkpt lat="45.826674" lon="6.730968">
        <ele>1153.3</ele>
        <time>2025-07-12T12:36:00Z</time>
        <extensions><gpxtpx:TrackPointExtension><gpxtpx:hr>103</gpxtpx:hr></gpxtpx:TrackPointExtension></extensions>
      </trkpt>
      <trkpt lat="45.826297" lon="6.730730">
        <ele>1153.8</ele>
        <time>2025-07-12T12:37:00Z</time>
        <extensions><gpxtpx:TrackPointExtension><gpxtpx:hr>104</gpxtpx:hr></gpxtpx:TrackPointExtension></extensions>
      </trkpt>
      <trkpt lat="45.825887" lon="6.730608">
        <ele>1154.9</ele>
        <time>2025-07-12T12:38:00Z</time>
        <extensions><gpxtpx:TrackPointExtension><gpxtpx:hr>104</gpxtpx:hr></gpxtpx:TrackPointExtension></extensions>
      </trkpt>
      <trkpt lat="45.825604" lon="6.730112">
        <ele>1155.7</ele>
        <time>2025-07-12T12:39:00Z</time>
        <extensions><gpxtpx:TrackPointExtension><gpxtpx:hr>104</gpxtpx:hr></gpxtpx:TrackPointExtension></extensions>
      </trkpt>
      <trkpt lat="45.825525" lon="6.729469">
        <ele>1158.0</ele>
        <time>2025-07-12T12:40:00Z</time>
        <extensions><gpxtpx:TrackPointExtension><gpxtpx:hr>101</gpxtpx:hr></gpxtpx:TrackPointExtension></extensions>
      </trkpt>
      <trkpt lat="45.825436" lon="6.728672">
        <ele>1158.0</ele>
        <time>2025-07-12T12:41:00Z</time>
        <extensions><gpxtpx:TrackPointExtension><gpxtpx:hr>102</gpxtpx:hr></gpxtpx:TrackPointExtension></extensions>
      </trkpt>
      <trkpt lat="45.824998" lon="6.728857">
        <ele>1161.7</ele>
        <time>2025-07-12T12:42:00Z</time>
        <extensions><gpxtpx:TrackPointExtension><gpxtpx:hr>103</gpxtpx:hr></gpxtpx:TrackPointExtension></extensions>
      </trkpt>
      <trkpt lat="45.824559" lon="6.729090">
        <ele>1160.1</ele>
        <time>2025-07-12T12:43:00Z</time>
        <extensions><gpxtpx:TrackPointExtension><gpxtpx:hr>103</gpxtpx:hr></gpxtpx:TrackPointExtension></extensions>
      </trkpt>
      <trkpt lat="45.824090" lon="6.729208">
        <ele>1162.4</ele>
        <time>2025-07-12T12:44:00Z</time>
        <extensions><gpxtpx:TrackPointExtension><gpxtpx:hr>103</gpxtpx:hr></gpxtpx:TrackPointExtension></extensions>
      </trkpt>
      <trkpt lat="45.823758" lon="6.728921">
        <ele>1164.3</ele>
        <time>2025-07-12T12:45:00Z</time>
        <extensions><gpxtpx:TrackPointExtension><gpxtpx:hr>103</gpxtpx:hr></gpxtpx:TrackPointExtension></extensions>
      </trkpt>
      <trkpt lat="45.823609" lon="6.728286">
        <ele>1164.4</ele>
        <time>2025-07-12T12:46:00Z</time>
        <extensions><gpxtpx:TrackPointExtension><gpxtpx:hr>103</gpxtpx:hr></gpxtpx:TrackPointExtension></extensions>
      </trkpt>
      <trkpt lat="45.823239" lon="6.728020">
        <ele>1165.6</ele>
        <time>2025-07-12T12:47:00Z</time>
        <extensions><gpxtpx:TrackPointExtension><gpxtpx:hr>104</gpxtpx:hr></gpxtpx:TrackPointExtension></extensions>
      </trkpt>
      <trkpt lat="45.823045" lon="6.727477">
        <ele>1165.1</ele>
        <time>2025-07-12T12:48:00Z</time>
        <extensions><gpxtpx:TrackPointExtension><gpxtpx:hr>104</gpxtpx:hr></gpxtpx:TrackPointExtension></extensions>
      </trkpt>
      <trkpt lat="45.822774" lon="6.726958">
        <ele>1166.1</ele>
        <time>2025-07-12T12:49:00Z</time>
        <extensions><gpxtpx:TrackPointExtension><gpxtpx:hr>107</gpxtpx:hr></gpxtpx:TrackPointExtension></extensions>
      </trkpt>
      <trkpt lat="45.822696" lon="6.726809">
        <ele>1167.2</ele>
        <time>2025-07-12T12:50:00Z</time>
        <extensions><gpxtpx:TrackPointExtension><gpxtpx:hr>103</gpxtpx:hr></gpxtpx:TrackPointExtension></extensions>
      </trkpt>
    </trkseg>
  </trk>
</gpx>
