<?xml version="1.0" encoding="UTF-8"?>
<gpx version="1.1" creator="OpenFlyover fixtures"
     xmlns="http://www.topografix.com/GPX/1/1"
     xmlns:gpxtpx="http://www.garmin.com/xmlschemas/TrackPointExtension/v1"
     xmlns:pwr="http://www.garmin.com/xmlschemas/PowerExtension/v1">
  <metadata>
    <name>Nom metadata</name>
  </metadata>
  <trk>
    <name>Montée test</name>
    <type>hiking</type>
    <trkseg>
      <trkpt lat="45.900" lon="6.800">
        <ele>1000</ele>
        <time>2025-07-12T07:00:00Z</time>
        <extensions>
          <gpxtpx:TrackPointExtension>
            <gpxtpx:hr>120</gpxtpx:hr>
            <gpxtpx:cad>80</gpxtpx:cad>
            <gpxtpx:atemp>21.5</gpxtpx:atemp>
          </gpxtpx:TrackPointExtension>
          <pwr:PowerInWatts>250</pwr:PowerInWatts>
          <power>250</power>
        </extensions>
      </trkpt>
      <trkpt lat="45.901" lon="6.800">
        <ele>1010</ele>
        <time>2025-07-12T07:00:30Z</time>
        <extensions><gpxtpx:TrackPointExtension><gpxtpx:hr>125</gpxtpx:hr></gpxtpx:TrackPointExtension></extensions>
      </trkpt>
      <trkpt lat="abc" lon="6.800">
        <ele>9999</ele>
        <time>2025-07-12T07:00:45Z</time>
      </trkpt>
      <trkpt lat="45.902" lon="6.800">
        <ele>1020</ele>
        <time>2025-07-12T07:01:00Z</time>
      </trkpt>
      <trkpt lat="45.903" lon="6.800">
        <ele>1030</ele>
        <time>2025-07-12T07:01:30Z</time>
      </trkpt>
      <trkpt lat="45.904" lon="6.800">
        <ele>1040</ele>
        <time>2025-07-12T07:02:00Z</time>
      </trkpt>
      <trkpt lat="45.905" lon="6.800">
        <ele>1050</ele>
        <time>2025-07-12T07:02:30Z</time>
      </trkpt>
    </trkseg>
    <trkseg>
      <trkpt lat="45.905" lon="6.810">
        <ele>1050</ele>
        <time>2025-07-12T07:05:00Z</time>
      </trkpt>
      <trkpt lat="45.904" lon="6.810">
        <ele>1040</ele>
        <time>2025-07-12T07:05:30Z</time>
      </trkpt>
      <trkpt lat="45.903" lon="6.810">
        <ele>1030</ele>
        <time>2025-07-12T07:06:00Z</time>
      </trkpt>
      <trkpt lat="45.902" lon="6.810">
        <ele>1020</ele>
        <time>2025-07-12T07:06:30Z</time>
      </trkpt>
      <trkpt lat="45.901" lon="6.810">
        <ele>1010</ele>
        <time>2025-07-12T07:07:00Z</time>
      </trkpt>
    </trkseg>
    <trkseg>
    </trkseg>
  </trk>
</gpx>
